{"type":"FeatureCollection","features":[{"type":"Feature","properties":{"route":"F1","name":"Northshore Hamilton / UQ St Lucia","category":"ferry","route_type":"4","shape_id":"F10079"},"geometry":{"type":"LineString","coordinates":[[153.019549,-27.496777],[153.019572,-27.496768],[153.018835,-27.494919],[153.018242,-27.494235],[153.01753,-27.493599],[153.015854,-27.492228],[153.014951,-27.491725],[153.013946,-27.491324],[153.012827,-27.491094],[153.011707,-27.490995],[153.005533,-27.491238],[153.004267,-27.490957],[153.003315,-27.490274],[153.003328,-27.490234],[153.003328,-27.490234],[153.003315,-27.490274],[153.002543,-27.491229],[153.002244,-27.492304],[153.00222,-27.492306],[153.00222,-27.492306],[153.002244,-27.492304],[153.001054,-27.49167],[152.999438,-27.49103],[152.997003,-27.490492],[152.996286,-27.490076],[152.995722,-27.489624],[152.99544,-27.489028],[152.995304,-27.488426],[152.995352,-27.487694],[152.995972,-27.485871],[152.997049,-27.484104],[152.997074,-27.483573],[152.996913,-27.483203],[152.996899,-27.483199],[152.996899,-27.483199],[152.996913,-27.483203],[152.997456,-27.483059],[152.998068,-27.482753],[152.999808,-27.480662],[153.003527,-27.476719],[153.00577,-27.474634],[153.005647,-27.473596],[153.005633,-27.473584],[153.005633,-27.473584],[153.005647,-27.473596],[153.006785,-27.473701],[153.008293,-27.472402],[153.011731,-27.470015],[153.012576,-27.469534],[153.014002,-27.468956],[153.015029,-27.468637],[153.015617,-27.468521],[153.016172,-27.46855],[153.016766,-27.468677],[153.017539,-27.469102],[153.018305,-27.469685],[153.018794,-27.470078],[153.019785,-27.471057],[153.021202,-27.472539],[153.022003,-27.472625],[153.022447,-27.472667],[153.022477,-27.472707],[153.022477,-27.472707],[153.022619,-27.472893],[153.022507,-27.473447],[153.022389,-27.473914],[153.022711,-27.474457],[153.022227,-27.475384],[153.022197,-27.475776],[153.022276,-27.475897],[153.022276,-27.475897],[153.022361,-27.476028],[153.022983,-27.476232],[153.024045,-27.476415],[153.025224,-27.478169],[153.025809,-27.478242],[153.026096,-27.478342],[153.026226,-27.478495],[153.026226,-27.478495],[153.026313,-27.478599],[153.026349,-27.478885],[153.026382,-27.479577],[153.026729,-27.479877],[153.027075,-27.480259],[153.027177,-27.480312],[153.027802,-27.480632],[153.028683,-27.480842],[153.029493,-27.480893],[153.030344,-27.480686],[153.031159,-27.480345],[153.031797,-27.479725],[153.032268,-27.47913],[153.032567,-27.478473],[153.032697,-27.477861],[153.032812,-27.474665],[153.032833,-27.473651],[153.032732,-27.472461],[153.032372,-27.468856],[153.032376,-27.468342],[153.031575,-27.467376],[153.031315,-27.466876],[153.031315,-27.466871],[153.031315,-27.466871],[153.031315,-27.466876],[153.03185,-27.466491],[153.032642,-27.466156],[153.032789,-27.465523],[153.033046,-27.465055],[153.033346,-27.464634],[153.0338,-27.464189],[153.034561,-27.463741],[153.035438,-27.463536],[153.035781,-27.463277],[153.036104,-27.46315],[153.036446,-27.463068],[153.036855,-27.463025],[153.037251,-27.46301],[153.037571,-27.463007],[153.037682,-27.463092],[153.037682,-27.463092],[153.037776,-27.463163],[153.037875,-27.46342],[153.037921,-27.463731],[153.037923,-27.464083],[153.037867,-27.464474],[153.037696,-27.465205],[153.038242,-27.466415],[153.039824,-27.471263],[153.039854,-27.471356],[153.040413,-27.473067],[153.040452,-27.473186],[153.040639,-27.47376],[153.041004,-27.474365],[153.042188,-27.474766],[153.042216,-27.474811],[153.042216,-27.474811],[153.042288,-27.474929],[153.042328,-27.475195],[153.04247,-27.475715],[153.042691,-27.476378],[153.042976,-27.476865],[153.043522,-27.4773],[153.043508,-27.477321],[153.043508,-27.477321],[153.043522,-27.4773],[153.044201,-27.477104],[153.044733,-27.476864],[153.045181,-27.476562],[153.045892,-27.476506],[153.046555,-27.476396],[153.047222,-27.47619],[153.050316,-27.474747],[153.052141,-27.47308],[153.052422,-27.472214],[153.052513,-27.471703],[153.052479,-27.471669],[153.052479,-27.471669],[153.052513,-27.471703],[153.053886,-27.471488],[153.055455,-27.470056],[153.055789,-27.469413],[153.055941,-27.468875],[153.055917,-27.468353],[153.055726,-27.467781],[153.053621,-27.464378],[153.052729,-27.462673],[153.052925,-27.462155],[153.053037,-27.461684],[153.053109,-27.461179],[153.053132,-27.461179],[153.053132,-27.461179],[153.053109,-27.461179],[153.052906,-27.4608],[153.052629,-27.460455],[153.052207,-27.46009],[153.052139,-27.458943],[153.05206,-27.456077],[153.051394,-27.453789],[153.051563,-27.452027],[153.051831,-27.4511],[153.05222,-27.450462],[153.052222,-27.450432],[153.052222,-27.450432],[153.05222,-27.450462],[153.049439,-27.45183],[153.049415,-27.45184],[153.049415,-27.45184],[153.049439,-27.45183],[153.049638,-27.451379],[153.049823,-27.45092],[153.04996,-27.450206],[153.050216,-27.448626],[153.049193,-27.444737],[153.049367,-27.442932],[153.050262,-27.44201],[153.0525,-27.44102],[153.054135,-27.440776],[153.058204,-27.440757],[153.061815,-27.441278],[153.062829,-27.441047],[153.063498,-27.440759],[153.064079,-27.440317],[153.064097,-27.440237],[153.064097,-27.440237],[153.064079,-27.440317],[153.064612,-27.441055],[153.065917,-27.442074],[153.074497,-27.444344],[153.080845,-27.446008],[153.082789,-27.446263],[153.083397,-27.446011],[153.083796,-27.445498],[153.083809,-27.445465]]}},{"type":"Feature","properties":{"route":"F1","name":"Northshore Hamilton / UQ St Lucia","category":"ferry","route_type":"4","shape_id":"F10080"},"geometry":{"type":"LineString","coordinates":[[153.083809,-27.445465],[153.083796,-27.445498],[153.083397,-27.446011],[153.082789,-27.446263],[153.080845,-27.446008],[153.074497,-27.444344],[153.065917,-27.442074],[153.064602,-27.442708],[153.063827,-27.443173],[153.063814,-27.443253],[153.063814,-27.443253],[153.063827,-27.443173],[153.064079,-27.440317],[153.064097,-27.440237],[153.064097,-27.440237],[153.064079,-27.440317],[153.063498,-27.440759],[153.062829,-27.441047],[153.061815,-27.441278],[153.058204,-27.440757],[153.054135,-27.440776],[153.0525,-27.44102],[153.050262,-27.44201],[153.049367,-27.442932],[153.049193,-27.444737],[153.050216,-27.448626],[153.04996,-27.450206],[153.049823,-27.45092],[153.049638,-27.451379],[153.049439,-27.45183],[153.049415,-27.45184],[153.049415,-27.45184],[153.049439,-27.45183],[153.05222,-27.450462],[153.052222,-27.450432],[153.052222,-27.450432],[153.05222,-27.450462],[153.051831,-27.4511],[153.051563,-27.452027],[153.051394,-27.453789],[153.05206,-27.456077],[153.052139,-27.458943],[153.052207,-27.46009],[153.052629,-27.460455],[153.052906,-27.4608],[153.053109,-27.461179],[153.053132,-27.461179],[153.053132,-27.461179],[153.053109,-27.461179],[153.053037,-27.461684],[153.052925,-27.462155],[153.052729,-27.462673],[153.053621,-27.464378],[153.055726,-27.467781],[153.055917,-27.468353],[153.055941,-27.468875],[153.055789,-27.469413],[153.055455,-27.470056],[153.053886,-27.471488],[153.052513,-27.471703],[153.052479,-27.471669],[153.052479,-27.471669],[153.052513,-27.471703],[153.052422,-27.472214],[153.052141,-27.47308],[153.050316,-27.474747],[153.047222,-27.47619],[153.046555,-27.476396],[153.045892,-27.476506],[153.045181,-27.476562],[153.044733,-27.476864],[153.044201,-27.477104],[153.043522,-27.4773],[153.043508,-27.477321],[153.043508,-27.477321],[153.043522,-27.4773],[153.042976,-27.476865],[153.042691,-27.476378],[153.04247,-27.475715],[153.042328,-27.475195],[153.042288,-27.474929],[153.042216,-27.474811],[153.042216,-27.474811],[153.042188,-27.474766],[153.041004,-27.474365],[153.040639,-27.47376],[153.040452,-27.473186],[153.040413,-27.473067],[153.039854,-27.471356],[153.039824,-27.471263],[153.038242,-27.466415],[153.037696,-27.465205],[153.037867,-27.464474],[153.037923,-27.464083],[153.037921,-27.463731],[153.037875,-27.46342],[153.037776,-27.463163],[153.037682,-27.463092],[153.037682,-27.463092],[153.037571,-27.463007],[153.037251,-27.46301],[153.036855,-27.463025],[153.036446,-27.463068],[153.036104,-27.46315],[153.035781,-27.463277],[153.035438,-27.463536],[153.034561,-27.463741],[153.0338,-27.464189],[153.033346,-27.464634],[153.033046,-27.465055],[153.032789,-27.465523],[153.032642,-27.466156],[153.03185,-27.466491],[153.031315,-27.466876],[153.031315,-27.466871],[153.031315,-27.466871],[153.031315,-27.466876],[153.031575,-27.467376],[153.032376,-27.468342],[153.032372,-27.468856],[153.032732,-27.472461],[153.032833,-27.473651],[153.032812,-27.474665],[153.032697,-27.477861],[153.032567,-27.478473],[153.032268,-27.47913],[153.031797,-27.479725],[153.031159,-27.480345],[153.030344,-27.480686],[153.029493,-27.480893],[153.028683,-27.480842],[153.027802,-27.480632],[153.027177,-27.480312],[153.027075,-27.480259],[153.026729,-27.479877],[153.026382,-27.479577],[153.026349,-27.478885],[153.026313,-27.478599],[153.026226,-27.478495],[153.026226,-27.478495],[153.026096,-27.478342],[153.025809,-27.478242],[153.025224,-27.478169],[153.024045,-27.476415],[153.022983,-27.476232],[153.022361,-27.476028],[153.022276,-27.475897],[153.022276,-27.475897],[153.022197,-27.475776],[153.022227,-27.475384],[153.022711,-27.474457],[153.022389,-27.473914],[153.022507,-27.473447],[153.022619,-27.472893],[153.022477,-27.472707],[153.022477,-27.472707],[153.022447,-27.472667],[153.022003,-27.472625],[153.021202,-27.472539],[153.019785,-27.471057],[153.018794,-27.470078],[153.018305,-27.469685],[153.017539,-27.469102],[153.016766,-27.468677],[153.016172,-27.46855],[153.015617,-27.468521],[153.015029,-27.468637],[153.014002,-27.468956],[153.012576,-27.469534],[153.011731,-27.470015],[153.008293,-27.472402],[153.006785,-27.473701],[153.00577,-27.474634],[153.003527,-27.476719],[152.999808,-27.480662],[152.998068,-27.482753],[152.997456,-27.483059],[152.996913,-27.483203],[152.996899,-27.483199],[152.996899,-27.483199],[152.996913,-27.483203],[152.997074,-27.483573],[152.997049,-27.484104],[152.995972,-27.485871],[152.995352,-27.487694],[152.995304,-27.488426],[152.99544,-27.489028],[152.995722,-27.489624],[152.996286,-27.490076],[152.997003,-27.490492],[152.999438,-27.49103],[153.001054,-27.49167],[153.002244,-27.492304],[153.00222,-27.492306],[153.00222,-27.492306],[153.002244,-27.492304],[153.002543,-27.491229],[153.003315,-27.490274],[153.003328,-27.490234],[153.003328,-27.490234],[153.003315,-27.490274],[153.004267,-27.490957],[153.005533,-27.491238],[153.011707,-27.490995],[153.012827,-27.491094],[153.013946,-27.491324],[153.014951,-27.491725],[153.015854,-27.492228],[153.01753,-27.493599],[153.018242,-27.494235],[153.018835,-27.494919],[153.019572,-27.496768],[153.019549,-27.496777]]}},{"type":"Feature","properties":{"route":"F1","name":"Northshore Hamilton / UQ St Lucia","category":"ferry","route_type":"4","shape_id":"F10081"},"geometry":{"type":"LineString","coordinates":[[153.083809,-27.445465],[153.083796,-27.445498],[153.083397,-27.446011],[153.082789,-27.446263],[153.080845,-27.446008],[153.074497,-27.444344],[153.065917,-27.442074],[153.064612,-27.441055],[153.064079,-27.440317],[153.064097,-27.440237],[153.064097,-27.440237],[153.064079,-27.440317],[153.063498,-27.440759],[153.062829,-27.441047],[153.061815,-27.441278],[153.058204,-27.440757],[153.054135,-27.440776],[153.0525,-27.44102],[153.050262,-27.44201],[153.049367,-27.442932],[153.049193,-27.444737],[153.050216,-27.448626],[153.04996,-27.450206],[153.049823,-27.45092],[153.049638,-27.451379],[153.049439,-27.45183],[153.049415,-27.45184],[153.049415,-27.45184],[153.049439,-27.45183],[153.05222,-27.450462],[153.052222,-27.450432],[153.052222,-27.450432],[153.05222,-27.450462],[153.051831,-27.4511],[153.051563,-27.452027],[153.051394,-27.453789],[153.05206,-27.456077],[153.052139,-27.458943],[153.052207,-27.46009],[153.052629,-27.460455],[153.052906,-27.4608],[153.053109,-27.461179],[153.053132,-27.461179],[153.053132,-27.461179],[153.053109,-27.461179],[153.053037,-27.461684],[153.052925,-27.462155],[153.052729,-27.462673],[153.053621,-27.464378],[153.055726,-27.467781],[153.055917,-27.468353],[153.055941,-27.468875],[153.055789,-27.469413],[153.055455,-27.470056],[153.053886,-27.471488],[153.052513,-27.471703],[153.052479,-27.471669],[153.052479,-27.471669],[153.052513,-27.471703],[153.052422,-27.472214],[153.052141,-27.47308],[153.050316,-27.474747],[153.047222,-27.47619],[153.046555,-27.476396],[153.045892,-27.476506],[153.045181,-27.476562],[153.044733,-27.476864],[153.044201,-27.477104],[153.043522,-27.4773],[153.043508,-27.477321],[153.043508,-27.477321],[153.043522,-27.4773],[153.042976,-27.476865],[153.042691,-27.476378],[153.04247,-27.475715],[153.042328,-27.475195],[153.042288,-27.474929],[153.042216,-27.474811],[153.042216,-27.474811],[153.042188,-27.474766],[153.041004,-27.474365],[153.040639,-27.47376],[153.040452,-27.473186],[153.040413,-27.473067],[153.039854,-27.471356],[153.039824,-27.471263],[153.038242,-27.466415],[153.037696,-27.465205],[153.037867,-27.464474],[153.037923,-27.464083],[153.037921,-27.463731],[153.037875,-27.46342],[153.037776,-27.463163],[153.037682,-27.463092],[153.037682,-27.463092],[153.037571,-27.463007],[153.037251,-27.46301],[153.036855,-27.463025],[153.036446,-27.463068],[153.036104,-27.46315],[153.035781,-27.463277],[153.035438,-27.463536],[153.034561,-27.463741],[153.0338,-27.464189],[153.033346,-27.464634],[153.033046,-27.465055],[153.032789,-27.465523],[153.032642,-27.466156],[153.03185,-27.466491],[153.031315,-27.466876],[153.031315,-27.466871],[153.031315,-27.466871],[153.031315,-27.466876],[153.031575,-27.467376],[153.032376,-27.468342],[153.032372,-27.468856],[153.032732,-27.472461],[153.032833,-27.473651],[153.032812,-27.474665],[153.032697,-27.477861],[153.032567,-27.478473],[153.032268,-27.47913],[153.031797,-27.479725],[153.031159,-27.480345],[153.030344,-27.480686],[153.029493,-27.480893],[153.028683,-27.480842],[153.027802,-27.480632],[153.027177,-27.480312],[153.027075,-27.480259],[153.026729,-27.479877],[153.026382,-27.479577],[153.026349,-27.478885],[153.026313,-27.478599],[153.026226,-27.478495],[153.026226,-27.478495],[153.026096,-27.478342],[153.025809,-27.478242],[153.025224,-27.478169],[153.024045,-27.476415],[153.022983,-27.476232],[153.022361,-27.476028],[153.022276,-27.475897],[153.022276,-27.475897],[153.022197,-27.475776],[153.022227,-27.475384],[153.022711,-27.474457],[153.022389,-27.473914],[153.022507,-27.473447],[153.022619,-27.472893],[153.022477,-27.472707],[153.022477,-27.472707],[153.022447,-27.472667],[153.022003,-27.472625],[153.021202,-27.472539],[153.019785,-27.471057],[153.018794,-27.470078],[153.018305,-27.469685],[153.017539,-27.469102],[153.016766,-27.468677],[153.016172,-27.46855],[153.015617,-27.468521],[153.015029,-27.468637],[153.014002,-27.468956],[153.012576,-27.469534],[153.011731,-27.470015],[153.008293,-27.472402],[153.006785,-27.473701],[153.005647,-27.473596],[153.005633,-27.473584],[153.005633,-27.473584],[153.005647,-27.473596],[153.00577,-27.474634],[153.003527,-27.476719],[152.999808,-27.480662],[152.998068,-27.482753],[152.997456,-27.483059],[152.996913,-27.483203],[152.996899,-27.483199],[152.996899,-27.483199],[152.996913,-27.483203],[152.997074,-27.483573],[152.997049,-27.484104],[152.995972,-27.485871],[152.995352,-27.487694],[152.995304,-27.488426],[152.99544,-27.489028],[152.995722,-27.489624],[152.996286,-27.490076],[152.997003,-27.490492],[152.999438,-27.49103],[153.001054,-27.49167],[153.002244,-27.492304],[153.00222,-27.492306],[153.00222,-27.492306],[153.002244,-27.492304],[153.002543,-27.491229],[153.003315,-27.490274],[153.003328,-27.490234],[153.003328,-27.490234],[153.003315,-27.490274],[153.004267,-27.490957],[153.005533,-27.491238],[153.011707,-27.490995],[153.012827,-27.491094],[153.013946,-27.491324],[153.014951,-27.491725],[153.015854,-27.492228],[153.01753,-27.493599],[153.018242,-27.494235],[153.018835,-27.494919],[153.019572,-27.496768],[153.019549,-27.496777]]}},{"type":"Feature","properties":{"route":"F1","name":"Northshore Hamilton / UQ St Lucia","category":"ferry","route_type":"4","shape_id":"F10256"},"geometry":{"type":"LineString","coordinates":[[153.019549,-27.496777],[153.019572,-27.496768],[153.018835,-27.494919],[153.018242,-27.494235],[153.01753,-27.493599],[153.015854,-27.492228],[153.014951,-27.491725],[153.013946,-27.491324],[153.012827,-27.491094],[153.011707,-27.490995],[153.005533,-27.491238],[153.004267,-27.490957],[153.003315,-27.490274],[153.003328,-27.490234],[153.003328,-27.490234],[153.003315,-27.490274],[153.002543,-27.491229],[153.002244,-27.492304],[153.00222,-27.492306],[153.00222,-27.492306],[153.002244,-27.492304],[153.001054,-27.49167],[152.999438,-27.49103],[152.997003,-27.490492],[152.996286,-27.490076],[152.995722,-27.489624],[152.99544,-27.489028],[152.995304,-27.488426],[152.995352,-27.487694],[152.995972,-27.485871],[152.997049,-27.484104],[152.997074,-27.483573],[152.996913,-27.483203],[152.996899,-27.483199],[152.996899,-27.483199],[152.996913,-27.483203],[152.997456,-27.483059],[152.998068,-27.482753],[152.999808,-27.480662],[153.003527,-27.476719],[153.00577,-27.474634],[153.006785,-27.473701],[153.008293,-27.472402],[153.011731,-27.470015],[153.012576,-27.469534],[153.014002,-27.468956],[153.015029,-27.468637],[153.015617,-27.468521],[153.016172,-27.46855],[153.016766,-27.468677],[153.017539,-27.469102],[153.018305,-27.469685],[153.018794,-27.470078],[153.019785,-27.471057],[153.021202,-27.472539],[153.022003,-27.472625],[153.022447,-27.472667],[153.022477,-27.472707],[153.022477,-27.472707],[153.022619,-27.472893],[153.022507,-27.473447],[153.022389,-27.473914],[153.022711,-27.474457],[153.022227,-27.475384],[153.022197,-27.475776],[153.022276,-27.475897],[153.022276,-27.475897],[153.022361,-27.476028],[153.022983,-27.476232],[153.024045,-27.476415],[153.025224,-27.478169],[153.025809,-27.478242],[153.026096,-27.478342],[153.026226,-27.478495],[153.026226,-27.478495],[153.026313,-27.478599],[153.026349,-27.478885],[153.026382,-27.479577],[153.026729,-27.479877],[153.027075,-27.480259],[153.027177,-27.480312],[153.027802,-27.480632],[153.028683,-27.480842],[153.029493,-27.480893],[153.030344,-27.480686],[153.031159,-27.480345],[153.031797,-27.479725],[153.032268,-27.47913],[153.032567,-27.478473],[153.032697,-27.477861],[153.032812,-27.474665],[153.032833,-27.473651],[153.032732,-27.472461],[153.032372,-27.468856],[153.032376,-27.468342],[153.031575,-27.467376],[153.031315,-27.466876],[153.031315,-27.466871],[153.031315,-27.466871],[153.031315,-27.466876],[153.03185,-27.466491],[153.032642,-27.466156],[153.032789,-27.465523],[153.033046,-27.465055],[153.033346,-27.464634],[153.0338,-27.464189],[153.034561,-27.463741],[153.035438,-27.463536],[153.035781,-27.463277],[153.036104,-27.46315],[153.036446,-27.463068],[153.036855,-27.463025],[153.037251,-27.46301],[153.037571,-27.463007],[153.037682,-27.463092],[153.037682,-27.463092],[153.037776,-27.463163],[153.037875,-27.46342],[153.037921,-27.463731],[153.037923,-27.464083],[153.037867,-27.464474],[153.037696,-27.465205],[153.038242,-27.466415],[153.039824,-27.471263],[153.039854,-27.471356],[153.040413,-27.473067],[153.040452,-27.473186],[153.040639,-27.47376],[153.041004,-27.474365],[153.042188,-27.474766],[153.042216,-27.474811],[153.042216,-27.474811],[153.042288,-27.474929],[153.042328,-27.475195],[153.04247,-27.475715],[153.042691,-27.476378],[153.042976,-27.476865],[153.043522,-27.4773],[153.043508,-27.477321],[153.043508,-27.477321],[153.043522,-27.4773],[153.044201,-27.477104],[153.044733,-27.476864],[153.045181,-27.476562],[153.045892,-27.476506],[153.046555,-27.476396],[153.047222,-27.47619],[153.050316,-27.474747],[153.052141,-27.47308],[153.052422,-27.472214],[153.052513,-27.471703],[153.052479,-27.471669],[153.052479,-27.471669],[153.052513,-27.471703],[153.053886,-27.471488],[153.055455,-27.470056],[153.055789,-27.469413],[153.055941,-27.468875],[153.055917,-27.468353],[153.055726,-27.467781],[153.053621,-27.464378],[153.052729,-27.462673],[153.052925,-27.462155],[153.053037,-27.461684],[153.053109,-27.461179],[153.053132,-27.461179],[153.053132,-27.461179],[153.053109,-27.461179],[153.052906,-27.4608],[153.052629,-27.460455],[153.052207,-27.46009],[153.052139,-27.458943],[153.05206,-27.456077],[153.051394,-27.453789],[153.051563,-27.452027],[153.051831,-27.4511],[153.05222,-27.450462],[153.052222,-27.450432],[153.052222,-27.450432],[153.05222,-27.450462],[153.049439,-27.45183],[153.049415,-27.45184],[153.049415,-27.45184],[153.049439,-27.45183],[153.049638,-27.451379],[153.049823,-27.45092],[153.04996,-27.450206],[153.050216,-27.448626],[153.049193,-27.444737],[153.049367,-27.442932],[153.050262,-27.44201],[153.0525,-27.44102],[153.054135,-27.440776],[153.058204,-27.440757],[153.061815,-27.441278],[153.062829,-27.441047],[153.063498,-27.440759],[153.064079,-27.440317],[153.064097,-27.440237],[153.064097,-27.440237],[153.064079,-27.440317],[153.063827,-27.443173],[153.063814,-27.443253],[153.063814,-27.443253],[153.063827,-27.443173],[153.064602,-27.442708],[153.065917,-27.442074],[153.074497,-27.444344],[153.080845,-27.446008],[153.082789,-27.446263],[153.083397,-27.446011],[153.083796,-27.445498],[153.083809,-27.445465]]}},{"type":"Feature","properties":{"route":"F21","name":"Bulimba / Teneriffe","category":"ferry","route_type":"4","shape_id":"F210001"},"geometry":{"type":"LineString","coordinates":[[153.052222,-27.450432],[153.05222,-27.450462],[153.049439,-27.45183],[153.049415,-27.45184]]}},{"type":"Feature","properties":{"route":"F21","name":"Bulimba / Teneriffe","category":"ferry","route_type":"4","shape_id":"F210002"},"geometry":{"type":"LineString","coordinates":[[153.049415,-27.45184],[153.049439,-27.45183],[153.05222,-27.450462],[153.052222,-27.450432]]}},{"type":"Feature","properties":{"route":"F22","name":"Sydney Street / Dockside","category":"ferry","route_type":"4","shape_id":"F220016"},"geometry":{"type":"LineString","coordinates":[[153.039214,-27.472428],[153.039229,-27.472464],[153.039814,-27.472665],[153.040413,-27.473067],[153.040452,-27.473186],[153.040639,-27.47376],[153.041004,-27.474365],[153.042188,-27.474766],[153.042216,-27.474811]]}},{"type":"Feature","properties":{"route":"F22","name":"Sydney Street / Dockside","category":"ferry","route_type":"4","shape_id":"F220017"},"geometry":{"type":"LineString","coordinates":[[153.042216,-27.474811],[153.042188,-27.474766],[153.041004,-27.474365],[153.040639,-27.47376],[153.040452,-27.473186],[153.040413,-27.473067],[153.039814,-27.472665],[153.039229,-27.472464],[153.039214,-27.472428]]}},{"type":"Feature","properties":{"route":"F23","name":"Holman Street / Riverside","category":"ferry","route_type":"4","shape_id":"F230017"},"geometry":{"type":"LineString","coordinates":[[153.031315,-27.466871],[153.031315,-27.466876],[153.03185,-27.466491],[153.032642,-27.466156],[153.033481,-27.465681],[153.033507,-27.465684]]}},{"type":"Feature","properties":{"route":"F23","name":"Holman Street / Riverside","category":"ferry","route_type":"4","shape_id":"F230020"},"geometry":{"type":"LineString","coordinates":[[153.033507,-27.465684],[153.033481,-27.465681],[153.032642,-27.466156],[153.03185,-27.466491],[153.031315,-27.466876],[153.031315,-27.466871]]}},{"type":"Feature","properties":{"route":"F24","name":"Maritime Museum / QUT Gardens Point","category":"ferry","route_type":"4","shape_id":"F240001"},"geometry":{"type":"LineString","coordinates":[[153.028832,-27.481937],[153.028792,-27.481931],[153.028336,-27.481524],[153.027842,-27.481157],[153.027177,-27.480312],[153.027075,-27.480259],[153.026729,-27.479877],[153.026382,-27.479577],[153.026349,-27.478885],[153.026313,-27.478599],[153.026226,-27.478495]]}},{"type":"Feature","properties":{"route":"F24","name":"Maritime Museum / QUT Gardens Point","category":"ferry","route_type":"4","shape_id":"F240002"},"geometry":{"type":"LineString","coordinates":[[153.026226,-27.478495],[153.026313,-27.478599],[153.026349,-27.478885],[153.026382,-27.479577],[153.026729,-27.479877],[153.027075,-27.480259],[153.027177,-27.480312],[153.027842,-27.481157],[153.028336,-27.481524],[153.028792,-27.481931],[153.028832,-27.481937]]}}]}