{"type":"FeatureCollection","features":[{"type":"Feature","properties":{"stop_id":"1001","name":"Queen Street station, 1e","routes":["130"],"categories":["high_bus"],"route_count":1},"geometry":{"type":"Point","coordinates":[153.024575,-27.470552]}},{"type":"Feature","properties":{"stop_id":"1002","name":"Queen Street station, 1f","routes":["61"],"categories":["high_bus"],"route_count":1},"geometry":{"type":"Point","coordinates":[153.024755,-27.470675]}},{"type":"Feature","properties":{"stop_id":"1003","name":"Queen Street station, 1g","routes":["385"],"categories":["high_bus"],"route_count":1},"geometry":{"type":"Point","coordinates":[153.024996,-27.470652]}},{"type":"Feature","properties":{"stop_id":"1004","name":"Queen Street station, 1h","routes":["345"],"categories":["high_bus"],"route_count":1},"geometry":{"type":"Point","coordinates":[153.025195,-27.470526]}},{"type":"Feature","properties":{"stop_id":"10078","name":"Roma St at Upper Roma Street, stop 3","routes":["375"],"categories":["intermediate_bus"],"route_count":1},"geometry":{"type":"Point","coordinates":[153.015439,-27.466129]}},{"type":"Feature","properties":{"stop_id":"1008","name":"Queen Street station, 3b","routes":["120"],"categories":["high_bus"],"route_count":1},"geometry":{"type":"Point","coordinates":[153.025136,-27.470357]}},{"type":"Feature","properties":{"stop_id":"1009","name":"Queen Street station, 3a","routes":["180"],"categories":["high_bus"],"route_count":1},"geometry":{"type":"Point","coordinates":[153.024839,-27.470371]}},{"type":"Feature","properties":{"stop_id":"1010","name":"Queen Street station, 2a","routes":["200"],"categories":["high_bus"],"route_count":1},"geometry":{"type":"Point","coordinates":[153.02477,-27.470161]}},{"type":"Feature","properties":{"stop_id":"10179","name":"Latrobe Tce at Old Ithaca Fire Station, stop 9","routes":["375"],"categories":["intermediate_bus"],"route_count":1},"geometry":{"type":"Point","coordinates":[152.999818,-27.458818]}},{"type":"Feature","properties":{"stop_id":"10190","name":"Old Cleveland Rd at Coorparoo Stop 23","routes":["61","200","204","222"],"categories":["high_bus","intermediate_bus"],"route_count":4},"geometry":{"type":"Point","coordinates":[153.058566,-27.494703]}},{"type":"Feature","properties":{"stop_id":"10396","name":"Ipswich Rd at Moorooka station, stop 38/39","routes":["19","100"],"categories":["high_bus","intermediate_bus"],"route_count":2},"geometry":{"type":"Point","coordinates":[153.015074,-27.534291]}},{"type":"Feature","properties":{"stop_id":"10780","name":"King George Square, 2a","routes":["M1","M2"],"categories":["high_bus"],"route_count":2},"geometry":{"type":"Point","coordinates":[153.024236,-27.468612]}},{"type":"Feature","properties":{"stop_id":"10781","name":"King George Square, 1a","routes":["333","340"],"categories":["high_bus"],"route_count":2},"geometry":{"type":"Point","coordinates":[153.023257,-27.467881]}},{"type":"Feature","properties":{"stop_id":"10782","name":"King George Square, 2b","routes":["61","222"],"categories":["high_bus"],"route_count":2},"geometry":{"type":"Point","coordinates":[153.024066,-27.468446]}},{"type":"Feature","properties":{"stop_id":"10783","name":"King George Square, 1b","routes":["61","222","444"],"categories":["high_bus"],"route_count":3},"geometry":{"type":"Point","coordinates":[153.02343,-27.468046]}},{"type":"Feature","properties":{"stop_id":"10784","name":"King George Square, 2c","routes":["333","340","444"],"categories":["high_bus"],"route_count":3},"geometry":{"type":"Point","coordinates":[153.023883,-27.46827]}},{"type":"Feature","properties":{"stop_id":"10785","name":"King George Square, 1c","routes":["M1","M2"],"categories":["high_bus"],"route_count":2},"geometry":{"type":"Point","coordinates":[153.023619,-27.4682]}},{"type":"Feature","properties":{"stop_id":"10792","name":"Roma Street busway, platform 2","routes":["61","M1","M2","222","330","333","340","345","385","390","444"],"categories":["high_bus","intermediate_bus"],"route_count":11},"geometry":{"type":"Point","coordinates":[153.0192,-27.465942]}},{"type":"Feature","properties":{"stop_id":"10793","name":"Roma Street busway, platform 1","routes":["61","M2","222","330","333","340","345","385","390","444"],"categories":["high_bus","intermediate_bus"],"route_count":10},"geometry":{"type":"Point","coordinates":[153.019374,-27.466083]}},{"type":"Feature","properties":{"stop_id":"10794","name":"Roma Street busway station","routes":["M1"],"categories":["high_bus"],"route_count":1},"geometry":{"type":"Point","coordinates":[153.019445,-27.466097]}},{"type":"Feature","properties":{"stop_id":"10795","name":"Boggo Road station, platform 4","routes":["19","M2","169"],"categories":["high_bus","intermediate_bus"],"route_count":3},"geometry":{"type":"Point","coordinates":[153.030592,-27.494037]}},{"type":"Feature","properties":{"stop_id":"10796","name":"Boggo Road station, platform 3","routes":["19","M2","169"],"categories":["high_bus","intermediate_bus"],"route_count":3},"geometry":{"type":"Point","coordinates":[153.030206,-27.493937]}},{"type":"Feature","properties":{"stop_id":"10797","name":"PA Hospital station, platform 1","routes":["M2","169"],"categories":["high_bus","intermediate_bus"],"route_count":2},"geometry":{"type":"Point","coordinates":[153.034195,-27.496767]}},{"type":"Feature","properties":{"stop_id":"10798","name":"PA Hospital station, platform 2","routes":["19","M2","169"],"categories":["high_bus","intermediate_bus"],"route_count":3},"geometry":{"type":"Point","coordinates":[153.033604,-27.496787]}},{"type":"Feature","properties":{"stop_id":"10799","name":"Lower Level at PA Hospital station","routes":["19"],"categories":["intermediate_bus"],"route_count":1},"geometry":{"type":"Point","coordinates":[153.034086,-27.496716]}},{"type":"Feature","properties":{"stop_id":"10802","name":"Cultural Centre station, platform 1","routes":["60","61","M1","M2","100","120","130","140","150","180","196","199","200","222","300","333","444","555"],"categories":["high_bus","intermediate_bus"],"route_count":18},"geometry":{"type":"Point","coordinates":[153.019415,-27.473232]}},{"type":"Feature","properties":{"stop_id":"10813","name":"Buranda busway, platform 3","routes":["M1","120","169","180","222","555"],"categories":["high_bus","intermediate_bus"],"route_count":6},"geometry":{"type":"Point","coordinates":[153.039513,-27.497218]}},{"type":"Feature","properties":{"stop_id":"10814","name":"Buranda busway, platform 4","routes":["M1","120","169","180","222","555"],"categories":["high_bus","intermediate_bus"],"route_count":6},"geometry":{"type":"Point","coordinates":[153.039185,-27.497023]}},{"type":"Feature","properties":{"stop_id":"10815","name":"Greenslopes station, platform 2","routes":["M1","169","555"],"categories":["high_bus","intermediate_bus"],"route_count":3},"geometry":{"type":"Point","coordinates":[153.040395,-27.511079]}},{"type":"Feature","properties":{"stop_id":"10816","name":"Greenslopes station, platform 1","routes":["M1","169","555"],"categories":["high_bus","intermediate_bus"],"route_count":3},"geometry":{"type":"Point","coordinates":[153.040072,-27.510793]}},{"type":"Feature","properties":{"stop_id":"10817","name":"Holland Park West station, platform 2","routes":["M1","169","555"],"categories":["high_bus","intermediate_bus"],"route_count":3},"geometry":{"type":"Point","coordinates":[153.057514,-27.528739]}},{"type":"Feature","properties":{"stop_id":"10818","name":"Holland Park West station, platform 1","routes":["M1","169","555"],"categories":["high_bus","intermediate_bus"],"route_count":3},"geometry":{"type":"Point","coordinates":[153.057272,-27.528343]}},{"type":"Feature","properties":{"stop_id":"10819","name":"Griffith University station, platform 2","routes":["M1","125","130","140","150","169","555"],"categories":["high_bus","intermediate_bus"],"route_count":7},"geometry":{"type":"Point","coordinates":[153.064682,-27.546738]}},{"type":"Feature","properties":{"stop_id":"10820","name":"Griffith University station, platform 1","routes":["M1","125","130","140","150","169","555"],"categories":["high_bus","intermediate_bus"],"route_count":7},"geometry":{"type":"Point","coordinates":[153.064253,-27.54655]}},{"type":"Feature","properties":{"stop_id":"10821","name":"Upper Mt Gravatt station, platform 2","routes":["M1","125","150","169","555"],"categories":["high_bus","intermediate_bus"],"route_count":5},"geometry":{"type":"Point","coordinates":[153.081751,-27.564228]}},{"type":"Feature","properties":{"stop_id":"10822","name":"Upper Mt Gravatt station, platform 1","routes":["M1","125","150","169","555"],"categories":["high_bus","intermediate_bus"],"route_count":5},"geometry":{"type":"Point","coordinates":[153.081286,-27.564032]}},{"type":"Feature","properties":{"stop_id":"10823","name":"Eight Mile Plains station, platform 2","routes":["169","555"],"categories":["high_bus","intermediate_bus"],"route_count":2},"geometry":{"type":"Point","coordinates":[153.102071,-27.578702]}},{"type":"Feature","properties":{"stop_id":"10824","name":"Eight Mile Plains station, platform 1","routes":["M1","169","555"],"categories":["high_bus","intermediate_bus"],"route_count":3},"geometry":{"type":"Point","coordinates":[153.101772,-27.578465]}},{"type":"Feature","properties":{"stop_id":"11115","name":"Junction Rd at Eagle Junction station, stop 28/1","routes":["369"],"categories":["intermediate_bus"],"route_count":1},"geometry":{"type":"Point","coordinates":[153.050168,-27.41481]}},{"type":"Feature","properties":{"stop_id":"11116","name":"Junction Rd at Eagle Junction station, stop 28","routes":["369"],"categories":["intermediate_bus"],"route_count":1},"geometry":{"type":"Point","coordinates":[153.049736,-27.414887]}},{"type":"Feature","properties":{"stop_id":"11133","name":"Toombul Shopping Centre station, platform B","routes":["369","590"],"categories":["intermediate_bus"],"route_count":2},"geometry":{"type":"Point","coordinates":[153.060142,-27.408234]}},{"type":"Feature","properties":{"stop_id":"11137","name":"Toombul Shopping Centre station, platform C","routes":["300"],"categories":["intermediate_bus"],"route_count":1},"geometry":{"type":"Point","coordinates":[153.060179,-27.40801]}},{"type":"Feature","properties":{"stop_id":"11168","name":"Cultural Centre station, platform 2","routes":["61","M1","M2","100","120","130","140","150","180","200","222","333","555"],"categories":["high_bus"],"route_count":13},"geometry":{"type":"Point","coordinates":[153.019148,-27.473455]}},{"type":"Feature","properties":{"stop_id":"11269","name":"Kedron Brook station, platform 2","routes":["333","340"],"categories":["high_bus"],"route_count":2},"geometry":{"type":"Point","coordinates":[153.035297,-27.415015]}},{"type":"Feature","properties":{"stop_id":"11270","name":"Kedron Brook station, platform 1","routes":["333","340","369"],"categories":["high_bus","intermediate_bus"],"route_count":3},"geometry":{"type":"Point","coordinates":[153.035672,-27.415338]}},{"type":"Feature","properties":{"stop_id":"11271","name":"Lutwyche station, platform 2","routes":["333","340","348"],"categories":["high_bus","intermediate_bus"],"route_count":3},"geometry":{"type":"Point","coordinates":[153.034251,-27.41991]}},{"type":"Feature","properties":{"stop_id":"11272","name":"Lutwyche station, platform 1","routes":["333","340","348"],"categories":["high_bus","intermediate_bus"],"route_count":3},"geometry":{"type":"Point","coordinates":[153.034482,-27.42033]}},{"type":"Feature","properties":{"stop_id":"11328","name":"Toombul Interchange","routes":["300","369","590"],"categories":["intermediate_bus"],"route_count":3},"geometry":{"type":"Point","coordinates":[153.060115,-27.408265]}},{"type":"Feature","properties":{"stop_id":"11408","name":"Eight Mile Plains station, platform 2","routes":["M1"],"categories":["high_bus"],"route_count":1},"geometry":{"type":"Point","coordinates":[153.102083,-27.578725]}},{"type":"Feature","properties":{"stop_id":"121","name":"Roma Street Stop 121 at Police HQ","routes":["375"],"categories":["intermediate_bus"],"route_count":1},"geometry":{"type":"Point","coordinates":[153.018427,-27.466533]}},{"type":"Feature","properties":{"stop_id":"12111","name":"Cultural Centre station, platform 3","routes":["60","196","199","300","444"],"categories":["high_bus","intermediate_bus"],"route_count":5},"geometry":{"type":"Point","coordinates":[153.017901,-27.474196]}},{"type":"Feature","properties":{"stop_id":"125","name":"Roma Street Stop 125 at Transit Centre","routes":["375","412"],"categories":["high_bus","intermediate_bus"],"route_count":2},"geometry":{"type":"Point","coordinates":[153.018346,-27.46638]}},{"type":"Feature","properties":{"stop_id":"13043","name":"Inala station, platform A","routes":["100"],"categories":["high_bus"],"route_count":1},"geometry":{"type":"Point","coordinates":[152.974951,-27.598802]}},{"type":"Feature","properties":{"stop_id":"13044","name":"Inala station, platform B","routes":["100"],"categories":["high_bus"],"route_count":1},"geometry":{"type":"Point","coordinates":[152.974885,-27.598964]}},{"type":"Feature","properties":{"stop_id":"13058","name":"Green St at Yeerongpilly station, stop 30","routes":["19"],"categories":["intermediate_bus"],"route_count":1},"geometry":{"type":"Point","coordinates":[153.014887,-27.525121]}},{"type":"Feature","properties":{"stop_id":"13129","name":"Browns Plains station, stop 3A","routes":["140"],"categories":["high_bus"],"route_count":1},"geometry":{"type":"Point","coordinates":[153.041018,-27.661033]}},{"type":"Feature","properties":{"stop_id":"13130","name":"Browns Plains station, stop 3B","routes":["150"],"categories":["high_bus"],"route_count":1},"geometry":{"type":"Point","coordinates":[153.041536,-27.661118]}},{"type":"Feature","properties":{"stop_id":"13175","name":"Browns Plains station","routes":["150"],"categories":["high_bus"],"route_count":1},"geometry":{"type":"Point","coordinates":[153.041323,-27.661104]}},{"type":"Feature","properties":{"stop_id":"138","name":"Roma Street Stop 138 near Ann St","routes":["412"],"categories":["high_bus"],"route_count":1},"geometry":{"type":"Point","coordinates":[153.023155,-27.46799]}},{"type":"Feature","properties":{"stop_id":"152","name":"Eagle Street Stop 152 at Riverside Centre","routes":["125","175","185","204"],"categories":["intermediate_bus"],"route_count":4},"geometry":{"type":"Point","coordinates":[153.030039,-27.467282]}},{"type":"Feature","properties":{"stop_id":"16507","name":"Garden City Shopping Centre station, stop I","routes":["590"],"categories":["intermediate_bus"],"route_count":1},"geometry":{"type":"Point","coordinates":[153.081105,-27.563766]}},{"type":"Feature","properties":{"stop_id":"16508","name":"Garden City Shopping Centre station, stop H","routes":["180"],"categories":["high_bus"],"route_count":1},"geometry":{"type":"Point","coordinates":[153.080901,-27.563633]}},{"type":"Feature","properties":{"stop_id":"16509","name":"Garden City Shopping Centre station, stop G","routes":["185"],"categories":["intermediate_bus"],"route_count":1},"geometry":{"type":"Point","coordinates":[153.080637,-27.563462]}},{"type":"Feature","properties":{"stop_id":"16512","name":"Garden City Shopping Centre station, stop D","routes":["120"],"categories":["high_bus"],"route_count":1},"geometry":{"type":"Point","coordinates":[153.080981,-27.563535]}},{"type":"Feature","properties":{"stop_id":"16513","name":"Garden City Shopping Centre station, stop C","routes":["175"],"categories":["intermediate_bus"],"route_count":1},"geometry":{"type":"Point","coordinates":[153.08071,-27.563365]}},{"type":"Feature","properties":{"stop_id":"1882","name":"UQ Lakes station","routes":["M2","169"],"categories":["high_bus","intermediate_bus"],"route_count":2},"geometry":{"type":"Point","coordinates":[153.018077,-27.49805]}},{"type":"Feature","properties":{"stop_id":"19050","name":"Woolloongabba station, platform 1","routes":["61","100","125","175","185","200","204","333","340"],"categories":["high_bus","intermediate_bus"],"route_count":9},"geometry":{"type":"Point","coordinates":[153.034648,-27.486079]}},{"type":"Feature","properties":{"stop_id":"19051","name":"Mater Hill station, platform 1","routes":["61","M1","M2","100","120","130","140","150","180","200","222","333","555"],"categories":["high_bus"],"route_count":13},"geometry":{"type":"Point","coordinates":[153.028213,-27.484505]}},{"type":"Feature","properties":{"stop_id":"19052","name":"South Bank busway station, platform 5","routes":["61","M1","M2","100","120","130","140","150","180","200","222","333","555"],"categories":["high_bus"],"route_count":13},"geometry":{"type":"Point","coordinates":[153.021835,-27.480721]}},{"type":"Feature","properties":{"stop_id":"19062","name":"Woolloongabba station, platform 2","routes":["61","100","125","175","185","200","204","333","340"],"categories":["high_bus","intermediate_bus"],"route_count":9},"geometry":{"type":"Point","coordinates":[153.035078,-27.486011]}},{"type":"Feature","properties":{"stop_id":"19063","name":"Mater Hill station, platform 2","routes":["61","M1","M2","100","120","130","140","150","180","200","222","333","555"],"categories":["high_bus"],"route_count":13},"geometry":{"type":"Point","coordinates":[153.028393,-27.484413]}},{"type":"Feature","properties":{"stop_id":"19064","name":"South Bank busway station, platform 4","routes":["61","M1","M2","100","120","130","140","150","180","200","222","333","555"],"categories":["high_bus"],"route_count":13},"geometry":{"type":"Point","coordinates":[153.022209,-27.481023]}},{"type":"Feature","properties":{"stop_id":"2069","name":"Samford Rd at Gaythorne station, stop 32","routes":["390"],"categories":["intermediate_bus"],"route_count":1},"geometry":{"type":"Point","coordinates":[152.984854,-27.419568]}},{"type":"Feature","properties":{"stop_id":"2070","name":"Samford Rd at Gaythorne station, stop 32","routes":["390"],"categories":["intermediate_bus"],"route_count":1},"geometry":{"type":"Point","coordinates":[152.983783,-27.418676]}},{"type":"Feature","properties":{"stop_id":"2101","name":"Brookside Shopping Centre station, platform C","routes":["369"],"categories":["intermediate_bus"],"route_count":1},"geometry":{"type":"Point","coordinates":[152.977874,-27.408643]}},{"type":"Feature","properties":{"stop_id":"218","name":"Ann Street Stop 218 at All Hallows","routes":["125","175","185","196","204"],"categories":["high_bus","intermediate_bus"],"route_count":5},"geometry":{"type":"Point","coordinates":[153.033278,-27.460299]}},{"type":"Feature","properties":{"stop_id":"2191","name":"Indooroopilly Shopping Centre station, stop A","routes":["444"],"categories":["high_bus"],"route_count":1},"geometry":{"type":"Point","coordinates":[152.971855,-27.501246]}},{"type":"Feature","properties":{"stop_id":"2192","name":"Brookside Shopping Centre station, platform A","routes":["369"],"categories":["intermediate_bus"],"route_count":1},"geometry":{"type":"Point","coordinates":[152.978651,-27.409984]}},{"type":"Feature","properties":{"stop_id":"2193","name":"Brookside Shopping Centre station, platform B","routes":["390"],"categories":["intermediate_bus"],"route_count":1},"geometry":{"type":"Point","coordinates":[152.978278,-27.409738]}},{"type":"Feature","properties":{"stop_id":"2200","name":"Indooroopilly Shopping Centre station, stop B","routes":["444"],"categories":["high_bus"],"route_count":1},"geometry":{"type":"Point","coordinates":[152.971892,-27.501168]}},{"type":"Feature","properties":{"stop_id":"226","name":"Wickham Street Stop 226 near Gotha St","routes":["60","300","338","348"],"categories":["high_bus","intermediate_bus"],"route_count":4},"geometry":{"type":"Point","coordinates":[153.031708,-27.460223]}},{"type":"Feature","properties":{"stop_id":"227","name":"Wickham Street Stop 227 near Little St","routes":["125","175","185","196","204"],"categories":["high_bus","intermediate_bus"],"route_count":5},"geometry":{"type":"Point","coordinates":[153.032018,-27.459068]}},{"type":"Feature","properties":{"stop_id":"3001","name":"Langlands Park station, platform 2","routes":["61","222"],"categories":["high_bus"],"route_count":2},"geometry":{"type":"Point","coordinates":[153.049707,-27.498513]}},{"type":"Feature","properties":{"stop_id":"3071","name":"Langlands Park station, platform 1","routes":["61","222"],"categories":["high_bus"],"route_count":2},"geometry":{"type":"Point","coordinates":[153.049224,-27.49863]}},{"type":"Feature","properties":{"stop_id":"3072","name":"Stones Corner station, platform 2","routes":["61","222"],"categories":["high_bus"],"route_count":2},"geometry":{"type":"Point","coordinates":[153.04465,-27.497829]}},{"type":"Feature","properties":{"stop_id":"3091","name":"Stones Corner station, platform 1","routes":["61","222"],"categories":["high_bus"],"route_count":2},"geometry":{"type":"Point","coordinates":[153.043994,-27.497811]}},{"type":"Feature","properties":{"stop_id":"320687","name":"Springwood station, platform 1","routes":["555"],"categories":["high_bus"],"route_count":1},"geometry":{"type":"Point","coordinates":[153.124979,-27.615057]}},{"type":"Feature","properties":{"stop_id":"320688","name":"Springwood station, platform 2","routes":["555"],"categories":["high_bus"],"route_count":1},"geometry":{"type":"Point","coordinates":[153.124573,-27.615083]}},{"type":"Feature","properties":{"stop_id":"321945","name":"Rochedale station, platform 2","routes":["555"],"categories":["high_bus"],"route_count":1},"geometry":{"type":"Point","coordinates":[153.111267,-27.592965]}},{"type":"Feature","properties":{"stop_id":"321946","name":"Rochedale station, platform 1","routes":["555"],"categories":["high_bus"],"route_count":1},"geometry":{"type":"Point","coordinates":[153.111058,-27.592831]}},{"type":"Feature","properties":{"stop_id":"3342","name":"Handford Rd at Zillmere station","routes":["330"],"categories":["high_bus"],"route_count":1},"geometry":{"type":"Point","coordinates":[153.038204,-27.359145]}},{"type":"Feature","properties":{"stop_id":"3343","name":"Handford Rd at Zillmere station","routes":["330"],"categories":["high_bus"],"route_count":1},"geometry":{"type":"Point","coordinates":[153.038444,-27.358545]}},{"type":"Feature","properties":{"stop_id":"3365","name":"Carseldine station","routes":["340"],"categories":["high_bus"],"route_count":1},"geometry":{"type":"Point","coordinates":[153.028745,-27.347704]}},{"type":"Feature","properties":{"stop_id":"3932","name":"Chermside Shopping Centre interchange B","routes":["338"],"categories":["intermediate_bus"],"route_count":1},"geometry":{"type":"Point","coordinates":[153.031283,-27.385564]}},{"type":"Feature","properties":{"stop_id":"3943","name":"Gympie Rd at Chermside, stop 37/38","routes":["330","333","338","340"],"categories":["high_bus","intermediate_bus"],"route_count":4},"geometry":{"type":"Point","coordinates":[153.031171,-27.386357]}},{"type":"Feature","properties":{"stop_id":"3944","name":"Chermside Shopping Centre interchange A","routes":["333"],"categories":["high_bus"],"route_count":1},"geometry":{"type":"Point","coordinates":[153.03152,-27.385597]}},{"type":"Feature","properties":{"stop_id":"3947","name":"Chermside Shopping Centre interchange E","routes":["330","340"],"categories":["high_bus"],"route_count":2},"geometry":{"type":"Point","coordinates":[153.03165,-27.385725]}},{"type":"Feature","properties":{"stop_id":"3979","name":"Chermside interchange","routes":["333","338"],"categories":["high_bus","intermediate_bus"],"route_count":2},"geometry":{"type":"Point","coordinates":[153.031649,-27.385601]}},{"type":"Feature","properties":{"stop_id":"4194","name":"Aspley Hypermarket station, platform A","routes":["345"],"categories":["high_bus"],"route_count":1},"geometry":{"type":"Point","coordinates":[153.013171,-27.363192]}},{"type":"Feature","properties":{"stop_id":"469","name":"Lutwyche Rd at Windsor Rail, stop 13","routes":["333","338","340","348"],"categories":["high_bus","intermediate_bus"],"route_count":4},"geometry":{"type":"Point","coordinates":[153.031572,-27.435617]}},{"type":"Feature","properties":{"stop_id":"470","name":"Lutwyche Rd at Windsor Rail","routes":["333","338","340","348"],"categories":["high_bus","intermediate_bus"],"route_count":4},"geometry":{"type":"Point","coordinates":[153.03153,-27.434761]}},{"type":"Feature","properties":{"stop_id":"4794","name":"Ipswich Rd at Moorooka station, stop 39","routes":["19","100"],"categories":["high_bus","intermediate_bus"],"route_count":2},"geometry":{"type":"Point","coordinates":[153.014301,-27.536657]}},{"type":"Feature","properties":{"stop_id":"4880","name":"Green St at Yeerongpilly station, stop 30","routes":["19"],"categories":["intermediate_bus"],"route_count":1},"geometry":{"type":"Point","coordinates":[153.014613,-27.525179]}},{"type":"Feature","properties":{"stop_id":"50","name":"Mary Street Stop 50 near Albert St","routes":["125","175","185","204"],"categories":["intermediate_bus"],"route_count":4},"geometry":{"type":"Point","coordinates":[153.026816,-27.472537]}},{"type":"Feature","properties":{"stop_id":"5011","name":"Mitchelton Rail station","routes":["369"],"categories":["intermediate_bus"],"route_count":1},"geometry":{"type":"Point","coordinates":[152.976389,-27.411489]}},{"type":"Feature","properties":{"stop_id":"5534","name":"Cripps St at Salisbury Interchange","routes":["125"],"categories":["intermediate_bus"],"route_count":1},"geometry":{"type":"Point","coordinates":[153.031947,-27.554349]}},{"type":"Feature","properties":{"stop_id":"5539","name":"Lillian Ave at Salisbury station","routes":["125"],"categories":["intermediate_bus"],"route_count":1},"geometry":{"type":"Point","coordinates":[153.023921,-27.553426]}},{"type":"Feature","properties":{"stop_id":"5540","name":"Lillian Ave at Salisbury station","routes":["125"],"categories":["intermediate_bus"],"route_count":1},"geometry":{"type":"Point","coordinates":[153.02391,-27.553296]}},{"type":"Feature","properties":{"stop_id":"5564","name":"Lillian Ave at Salisbury Interchange, zone A","routes":["125"],"categories":["intermediate_bus"],"route_count":1},"geometry":{"type":"Point","coordinates":[153.032641,-27.554622]}},{"type":"Feature","properties":{"stop_id":"558","name":"Truro Street, platform 1","routes":["333","338","340","348"],"categories":["high_bus","intermediate_bus"],"route_count":4},"geometry":{"type":"Point","coordinates":[153.032966,-27.426825]}},{"type":"Feature","properties":{"stop_id":"5785","name":"Beenleigh Rd at Fruitgrove station","routes":["150"],"categories":["high_bus"],"route_count":1},"geometry":{"type":"Point","coordinates":[153.080224,-27.598834]}},{"type":"Feature","properties":{"stop_id":"5786","name":"Beenleigh Rd at Fruitgrove station","routes":["150"],"categories":["high_bus"],"route_count":1},"geometry":{"type":"Point","coordinates":[153.08063,-27.598695]}},{"type":"Feature","properties":{"stop_id":"600000","name":"Bowen Hills station, platform 2","routes":["BRBD","BRBR","BRDB","BRFG","BRSH","CLBR","CLSH","IPBR"],"categories":["rail"],"route_count":8},"geometry":{"type":"Point","coordinates":[153.037634,-27.44539]}},{"type":"Feature","properties":{"stop_id":"600002","name":"Bowen Hills station, platform 3","routes":["BDBR","BRBR","BRCL","BRIP","BRSP","CAIP","CASP","DBBR","FGBR","GYBR","NAIP","RPBR","RPSP","SHBR","SHCL"],"categories":["rail"],"route_count":15},"geometry":{"type":"Point","coordinates":[153.037641,-27.445482]}},{"type":"Feature","properties":{"stop_id":"600005","name":"Bowen Hills station, platform 1","routes":["BDBR","BRBR","DBBR","FGBR","SHBR","SHCL"],"categories":["rail"],"route_count":6},"geometry":{"type":"Point","coordinates":[153.037717,-27.445402]}},{"type":"Feature","properties":{"stop_id":"600006","name":"South Bank station, platform 1","routes":["BRCL","DBBR","SHCL"],"categories":["rail"],"route_count":3},"geometry":{"type":"Point","coordinates":[153.022995,-27.481832]}},{"type":"Feature","properties":{"stop_id":"600007","name":"Bowen Hills station, platform 4","routes":["BRBD","BRBR","BRCA","BRDB","BRFG","BRGY","BRRP","BRSH","CLSH","IPCA","IPNA","SPCA","SPNA","SPRP"],"categories":["rail"],"route_count":14},"geometry":{"type":"Point","coordinates":[153.037549,-27.445437]}},{"type":"Feature","properties":{"stop_id":"600010","name":"Fortitude Valley station, platform 3","routes":["BDBR","BRBR","BRCL","BRIP","BRSP","CAIP","CASP","DBBR","FGBR","GYBR","NAIP","RPBR","RPSP","SHBR","SHCL"],"categories":["rail"],"route_count":15},"geometry":{"type":"Point","coordinates":[153.033705,-27.456047]}},{"type":"Feature","properties":{"stop_id":"600011","name":"Fortitude Valley station, platform 4","routes":["BRBD","BRCA","BRDB","BRFG","BRGY","BRRP","BRSH","CLSH","IPCA","IPNA","SPCA","SPNA","SPRP"],"categories":["rail"],"route_count":13},"geometry":{"type":"Point","coordinates":[153.03358,-27.456021]}},{"type":"Feature","properties":{"stop_id":"600012","name":"South Brisbane station, platform 1","routes":["BDBR","BRBR","BRCL","DBBR","FGBR","SHCL"],"categories":["rail"],"route_count":6},"geometry":{"type":"Point","coordinates":[153.018521,-27.475067]}},{"type":"Feature","properties":{"stop_id":"600013","name":"Fortitude Valley station, platform 2","routes":["BRBD","BRBR","BRDB","BRFG","BRSH","CLBR","CLSH","IPBR"],"categories":["rail"],"route_count":8},"geometry":{"type":"Point","coordinates":[153.033637,-27.456111]}},{"type":"Feature","properties":{"stop_id":"600014","name":"Fortitude Valley station, platform 1","routes":["BDBR","BRBR","DBBR","FGBR","SHBR","SHCL"],"categories":["rail"],"route_count":6},"geometry":{"type":"Point","coordinates":[153.033762,-27.456135]}},{"type":"Feature","properties":{"stop_id":"600016","name":"Central station, platform 3","routes":["BRBD","BRBR","BRFG","IPBR"],"categories":["rail"],"route_count":4},"geometry":{"type":"Point","coordinates":[153.026028,-27.465737]}},{"type":"Feature","properties":{"stop_id":"600017","name":"Central station, platform 2","routes":["DBBR","SHBR","SHCL"],"categories":["rail"],"route_count":3},"geometry":{"type":"Point","coordinates":[153.025981,-27.465769]}},{"type":"Feature","properties":{"stop_id":"600018","name":"Central station, platform 1","routes":["BDBR","BRBR","DBBR","FGBR","SHCL"],"categories":["rail"],"route_count":5},"geometry":{"type":"Point","coordinates":[153.026069,-27.465841]}},{"type":"Feature","properties":{"stop_id":"600019","name":"Central station, platform 5","routes":["BDBR","BRBR","BRCL","BRIP","BRSP","CAIP","CASP","DBBR","FGBR","GYBR","NAIP","RPBR","RPSP","SHBR","SHCL"],"categories":["rail"],"route_count":15},"geometry":{"type":"Point","coordinates":[153.025962,-27.465647]}},{"type":"Feature","properties":{"stop_id":"600020","name":"Central station, platform 4","routes":["BRDB","BRSH","CLBR","CLSH"],"categories":["rail"],"route_count":4},"geometry":{"type":"Point","coordinates":[153.025902,-27.465687]}},{"type":"Feature","properties":{"stop_id":"600024","name":"Central station, platform 6","routes":["BRBD","BRCA","BRDB","BRFG","BRGY","BRRP","BRSH","CLSH","IPCA","IPNA","SPCA","SPNA","SPRP"],"categories":["rail"],"route_count":13},"geometry":{"type":"Point","coordinates":[153.025827,-27.465594]}},{"type":"Feature","properties":{"stop_id":"600028","name":"Roma Street station, platform 7","routes":["BRBD","BRBR","BRDB","BRFG","BRGY","BRSH","CLSH","DBBR","FGBR","IPBR","SHBR"],"categories":["rail"],"route_count":11},"geometry":{"type":"Point","coordinates":[153.019689,-27.465246]}},{"type":"Feature","properties":{"stop_id":"600029","name":"Roma Street station, platform 8","routes":["BRBR","BRCL","BRIP","BRSP","CAIP","CASP","GYBR","NAIP","RPBR","RPSP","SHBR"],"categories":["rail"],"route_count":11},"geometry":{"type":"Point","coordinates":[153.019804,-27.46528]}},{"type":"Feature","properties":{"stop_id":"600030","name":"Roma Street station, platform 6","routes":["BDBR","BRBD","BRBR","BRSH","CLBR","DBBR","FGBR","SHBR","SHCL"],"categories":["rail"],"route_count":9},"geometry":{"type":"Point","coordinates":[153.019736,-27.46544]}},{"type":"Feature","properties":{"stop_id":"600034","name":"Roma Street station, platform 5","routes":["BDBR","BRBR","DBBR","FGBR","SHCL"],"categories":["rail"],"route_count":5},"geometry":{"type":"Point","coordinates":[153.019624,-27.46541]}},{"type":"Feature","properties":{"stop_id":"600036","name":"Roma Street station, platform 4","routes":["BDBR","FGBR","SHBR"],"categories":["rail"],"route_count":3},"geometry":{"type":"Point","coordinates":[153.019616,-27.465583]}},{"type":"Feature","properties":{"stop_id":"600038","name":"Roma Street station, platform 9","routes":["BRCA","BRFG","BRGY","BRRP","BRSH","IPCA","IPNA","SPCA","SPNA","SPRP"],"categories":["rail"],"route_count":10},"geometry":{"type":"Point","coordinates":[153.01979,-27.465057]}},{"type":"Feature","properties":{"stop_id":"600085","name":"Boggo Road station, platform 8","routes":["BRCL","DBBR","SHCL"],"categories":["rail"],"route_count":3},"geometry":{"type":"Point","coordinates":[153.030866,-27.493617]}},{"type":"Feature","properties":{"stop_id":"600087","name":"Springfield station, platform 2","routes":["SPCA","SPNA","SPRP"],"categories":["rail"],"route_count":3},"geometry":{"type":"Point","coordinates":[152.921424,-27.660648]}},{"type":"Feature","properties":{"stop_id":"600088","name":"Springfield station, platform 1","routes":["BRSP","CASP","RPSP"],"categories":["rail"],"route_count":3},"geometry":{"type":"Point","coordinates":[152.921296,-27.66055]}},{"type":"Feature","properties":{"stop_id":"600089","name":"Springfield Central station, platform 1","routes":["BRSP","CASP","RPSP","SPCA","SPNA","SPRP"],"categories":["rail"],"route_count":6},"geometry":{"type":"Point","coordinates":[152.902811,-27.674192]}},{"type":"Feature","properties":{"stop_id":"600090","name":"Springfield Central station, platform 2","routes":["RPSP"],"categories":["rail"],"route_count":1},"geometry":{"type":"Point","coordinates":[152.902841,-27.674345]}},{"type":"Feature","properties":{"stop_id":"600186","name":"South Brisbane station, platform 2","routes":["BRBD","BRBR","BRDB","BRFG","CLBR","CLSH"],"categories":["rail"],"route_count":6},"geometry":{"type":"Point","coordinates":[153.018455,-27.475122]}},{"type":"Feature","properties":{"stop_id":"600188","name":"South Bank station, platform 2","routes":["BRBR","BRDB","BRFG","CLBR","CLSH"],"categories":["rail"],"route_count":5},"geometry":{"type":"Point","coordinates":[153.022914,-27.481845]}},{"type":"Feature","properties":{"stop_id":"600189","name":"South Bank station, platform 3","routes":["BDBR","BRBD","BRBR","FGBR"],"categories":["rail"],"route_count":4},"geometry":{"type":"Point","coordinates":[153.02294,-27.48189]}},{"type":"Feature","properties":{"stop_id":"600190","name":"Boggo Road station, platform 7","routes":["BRDB","CLBR","CLSH"],"categories":["rail"],"route_count":3},"geometry":{"type":"Point","coordinates":[153.03081,-27.493794]}},{"type":"Feature","properties":{"stop_id":"600191","name":"Boggo Road station, platform 6","routes":["BRBR","BRFG","FGBR"],"categories":["rail"],"route_count":3},"geometry":{"type":"Point","coordinates":[153.03073,-27.493739]}},{"type":"Feature","properties":{"stop_id":"600192","name":"Boggo Road station, platform 5","routes":["BDBR","BRBD","BRBR"],"categories":["rail"],"route_count":3},"geometry":{"type":"Point","coordinates":[153.03071,-27.493889]}},{"type":"Feature","properties":{"stop_id":"600248","name":"Buranda station, platform 1","routes":["BRCL","SHCL"],"categories":["rail"],"route_count":2},"geometry":{"type":"Point","coordinates":[153.040441,-27.496491]}},{"type":"Feature","properties":{"stop_id":"600249","name":"Buranda station, platform 2","routes":["CLBR","CLSH"],"categories":["rail"],"route_count":2},"geometry":{"type":"Point","coordinates":[153.040469,-27.496544]}},{"type":"Feature","properties":{"stop_id":"600250","name":"Coorparoo station, platform 2","routes":["BRCL","SHCL"],"categories":["rail"],"route_count":2},"geometry":{"type":"Point","coordinates":[153.055126,-27.489563]}},{"type":"Feature","properties":{"stop_id":"600251","name":"Coorparoo station, platform 1","routes":["CLBR","CLSH"],"categories":["rail"],"route_count":2},"geometry":{"type":"Point","coordinates":[153.055233,-27.489617]}},{"type":"Feature","properties":{"stop_id":"600252","name":"Norman Park station, platform 1","routes":["BRCL","SHCL"],"categories":["rail"],"route_count":2},"geometry":{"type":"Point","coordinates":[153.062243,-27.481618]}},{"type":"Feature","properties":{"stop_id":"600253","name":"Norman Park station, platform 2","routes":["CLBR","CLSH"],"categories":["rail"],"route_count":2},"geometry":{"type":"Point","coordinates":[153.062273,-27.481669]}},{"type":"Feature","properties":{"stop_id":"600254","name":"Morningside station, platform 1","routes":["BRCL","SHCL"],"categories":["rail"],"route_count":2},"geometry":{"type":"Point","coordinates":[153.069393,-27.470874]}},{"type":"Feature","properties":{"stop_id":"600255","name":"Morningside station, platform 2","routes":["CLBR","CLSH"],"categories":["rail"],"route_count":2},"geometry":{"type":"Point","coordinates":[153.069551,-27.470954]}},{"type":"Feature","properties":{"stop_id":"600256","name":"Cannon Hill station, platform 1","routes":["BRCL","SHCL"],"categories":["rail"],"route_count":2},"geometry":{"type":"Point","coordinates":[153.088239,-27.46538]}},{"type":"Feature","properties":{"stop_id":"600257","name":"Cannon Hill station, platform 2","routes":["CLBR","CLSH"],"categories":["rail"],"route_count":2},"geometry":{"type":"Point","coordinates":[153.088341,-27.465364]}},{"type":"Feature","properties":{"stop_id":"600258","name":"Murarrie station, platform 2","routes":["CLBR","CLSH"],"categories":["rail"],"route_count":2},"geometry":{"type":"Point","coordinates":[153.105656,-27.464642]}},{"type":"Feature","properties":{"stop_id":"600259","name":"Murarrie station, platform 1","routes":["BRCL","SHCL"],"categories":["rail"],"route_count":2},"geometry":{"type":"Point","coordinates":[153.105562,-27.464662]}},{"type":"Feature","properties":{"stop_id":"600260","name":"Hemmant station, platform 1","routes":["CLBR","CLSH"],"categories":["rail"],"route_count":2},"geometry":{"type":"Point","coordinates":[153.127344,-27.447316]}},{"type":"Feature","properties":{"stop_id":"600261","name":"Hemmant station, platform 2","routes":["BRCL","SHCL"],"categories":["rail"],"route_count":2},"geometry":{"type":"Point","coordinates":[153.127372,-27.447389]}},{"type":"Feature","properties":{"stop_id":"600262","name":"Lindum station, platform 2","routes":["CLBR","CLSH"],"categories":["rail"],"route_count":2},"geometry":{"type":"Point","coordinates":[153.144962,-27.441902]}},{"type":"Feature","properties":{"stop_id":"600263","name":"Lindum station, platform 1","routes":["BRCL","SHCL"],"categories":["rail"],"route_count":2},"geometry":{"type":"Point","coordinates":[153.144876,-27.441942]}},{"type":"Feature","properties":{"stop_id":"600264","name":"Wynnum North station, platform 2","routes":["CLBR","CLSH"],"categories":["rail"],"route_count":2},"geometry":{"type":"Point","coordinates":[153.158698,-27.437232]}},{"type":"Feature","properties":{"stop_id":"600265","name":"Wynnum North station, platform 1","routes":["BRCL","SHCL"],"categories":["rail"],"route_count":2},"geometry":{"type":"Point","coordinates":[153.158588,-27.437207]}},{"type":"Feature","properties":{"stop_id":"600266","name":"Wynnum station, platform 1","routes":["BRCL","SHCL"],"categories":["rail"],"route_count":2},"geometry":{"type":"Point","coordinates":[153.166196,-27.43969]}},{"type":"Feature","properties":{"stop_id":"600267","name":"Wynnum station, platform 2","routes":["CLBR","CLSH"],"categories":["rail"],"route_count":2},"geometry":{"type":"Point","coordinates":[153.166087,-27.439728]}},{"type":"Feature","properties":{"stop_id":"600270","name":"Lota station, platform 2","routes":["BRCL","CLBR","CLSH","SHCL"],"categories":["rail"],"route_count":4},"geometry":{"type":"Point","coordinates":[153.188414,-27.470004]}},{"type":"Feature","properties":{"stop_id":"600271","name":"Thorneside station, platform 1","routes":["CLBR","CLSH"],"categories":["rail"],"route_count":2},"geometry":{"type":"Point","coordinates":[153.192703,-27.486124]}},{"type":"Feature","properties":{"stop_id":"600272","name":"Thorneside station, platform 2","routes":["BRCL","SHCL"],"categories":["rail"],"route_count":2},"geometry":{"type":"Point","coordinates":[153.192607,-27.486191]}},{"type":"Feature","properties":{"stop_id":"600273","name":"Birkdale station, platform 1","routes":["BRCL","CLBR","CLSH","SHCL"],"categories":["rail"],"route_count":4},"geometry":{"type":"Point","coordinates":[153.218722,-27.494073]}},{"type":"Feature","properties":{"stop_id":"600274","name":"Wellington Point station, platform 2","routes":["CLBR","CLSH"],"categories":["rail"],"route_count":2},"geometry":{"type":"Point","coordinates":[153.241936,-27.494486]}},{"type":"Feature","properties":{"stop_id":"600275","name":"Wellington Point station, platform 1","routes":["BRCL","SHCL"],"categories":["rail"],"route_count":2},"geometry":{"type":"Point","coordinates":[153.242013,-27.494311]}},{"type":"Feature","properties":{"stop_id":"600276","name":"Ormiston station, platform 1","routes":["BRCL","CLBR","CLSH","SHCL"],"categories":["rail"],"route_count":4},"geometry":{"type":"Point","coordinates":[153.255831,-27.514525]}},{"type":"Feature","properties":{"stop_id":"600277","name":"Cleveland station, platform 1","routes":["BRCL","CLBR","CLSH","SHCL"],"categories":["rail"],"route_count":4},"geometry":{"type":"Point","coordinates":[153.265926,-27.524199]}},{"type":"Feature","properties":{"stop_id":"600278","name":"Cleveland station, platform 2","routes":["BRCL","CLBR","CLSH","SHCL"],"categories":["rail"],"route_count":4},"geometry":{"type":"Point","coordinates":[153.265929,-27.524287]}},{"type":"Feature","properties":{"stop_id":"600279","name":"Milton station, platform 1","routes":["BRIP","BRSP","CAIP","CASP","NAIP","RPSP"],"categories":["rail"],"route_count":6},"geometry":{"type":"Point","coordinates":[153.005197,-27.468965]}},{"type":"Feature","properties":{"stop_id":"600280","name":"Milton station, platform 2","routes":["IPBR","IPCA","IPNA","SPCA","SPNA","SPRP"],"categories":["rail"],"route_count":6},"geometry":{"type":"Point","coordinates":[153.005299,-27.46893]}},{"type":"Feature","properties":{"stop_id":"600283","name":"Auchenflower station, platform 1","routes":["BRIP","BRSP","CAIP","CASP","NAIP","RPSP"],"categories":["rail"],"route_count":6},"geometry":{"type":"Point","coordinates":[152.996936,-27.476098]}},{"type":"Feature","properties":{"stop_id":"600284","name":"Auchenflower station, platform 2","routes":["IPBR","IPCA","IPNA","SPCA","SPNA","SPRP"],"categories":["rail"],"route_count":6},"geometry":{"type":"Point","coordinates":[152.996928,-27.476127]}},{"type":"Feature","properties":{"stop_id":"600287","name":"Toowong station, platform 1","routes":["BRIP","BRSP","CAIP","CASP","NAIP","RPSP"],"categories":["rail"],"route_count":6},"geometry":{"type":"Point","coordinates":[152.993169,-27.485334]}},{"type":"Feature","properties":{"stop_id":"600288","name":"Toowong station, platform 2","routes":["IPBR","IPCA","IPNA","SPCA","SPNA","SPRP"],"categories":["rail"],"route_count":6},"geometry":{"type":"Point","coordinates":[152.993086,-27.485269]}},{"type":"Feature","properties":{"stop_id":"600291","name":"Taringa station, platform 1","routes":["BRIP","BRSP","CAIP","CASP","NAIP","RPSP"],"categories":["rail"],"route_count":6},"geometry":{"type":"Point","coordinates":[152.981426,-27.493243]}},{"type":"Feature","properties":{"stop_id":"600292","name":"Taringa station, platform 2","routes":["IPBR","IPCA","IPNA","SPCA","SPNA","SPRP"],"categories":["rail"],"route_count":6},"geometry":{"type":"Point","coordinates":[152.981428,-27.493172]}},{"type":"Feature","properties":{"stop_id":"600295","name":"Indooroopilly station, platform 1","routes":["BRIP","BRSP","CAIP","CASP","NAIP","RPSP"],"categories":["rail"],"route_count":6},"geometry":{"type":"Point","coordinates":[152.975837,-27.503071]}},{"type":"Feature","properties":{"stop_id":"600296","name":"Indooroopilly station, platform 2","routes":["IPBR","IPCA","IPNA","SPCA","SPNA","SPRP"],"categories":["rail"],"route_count":6},"geometry":{"type":"Point","coordinates":[152.975773,-27.503012]}},{"type":"Feature","properties":{"stop_id":"600299","name":"Chelmer station, platform 1","routes":["BRIP","BRSP","CAIP","CASP","NAIP","RPSP"],"categories":["rail"],"route_count":6},"geometry":{"type":"Point","coordinates":[152.972908,-27.512172]}},{"type":"Feature","properties":{"stop_id":"600300","name":"Chelmer station, platform 2","routes":["IPBR","IPCA","IPNA","SPCA","SPNA","SPRP"],"categories":["rail"],"route_count":6},"geometry":{"type":"Point","coordinates":[152.972761,-27.51216]}},{"type":"Feature","properties":{"stop_id":"600303","name":"Graceville station, platform 1","routes":["BRIP","BRSP","CAIP","CASP","NAIP","RPSP"],"categories":["rail"],"route_count":6},"geometry":{"type":"Point","coordinates":[152.976024,-27.520674]}},{"type":"Feature","properties":{"stop_id":"600304","name":"Graceville station, platform 2","routes":["IPBR","IPCA","IPNA","SPCA","SPNA","SPRP"],"categories":["rail"],"route_count":6},"geometry":{"type":"Point","coordinates":[152.975915,-27.520676]}},{"type":"Feature","properties":{"stop_id":"600309","name":"Sherwood station, platform 1","routes":["BRIP","BRSP","CAIP","CASP","NAIP","RPSP"],"categories":["rail"],"route_count":6},"geometry":{"type":"Point","coordinates":[152.979649,-27.53123]}},{"type":"Feature","properties":{"stop_id":"600310","name":"Sherwood station, platform 2","routes":["IPBR","IPCA","IPNA","SPCA","SPNA","SPRP"],"categories":["rail"],"route_count":6},"geometry":{"type":"Point","coordinates":[152.979492,-27.531152]}},{"type":"Feature","properties":{"stop_id":"600314","name":"Corinda station, platform 2","routes":["BRIP","BRSP","CAIP","CASP","NAIP","RPSP"],"categories":["rail"],"route_count":6},"geometry":{"type":"Point","coordinates":[152.980089,-27.539174]}},{"type":"Feature","properties":{"stop_id":"600316","name":"Corinda station, platform 4","routes":["SPCA","SPNA","SPRP"],"categories":["rail"],"route_count":3},"geometry":{"type":"Point","coordinates":[152.979978,-27.539145]}},{"type":"Feature","properties":{"stop_id":"600317","name":"Corinda station, platform 5","routes":["IPBR","IPCA","IPNA"],"categories":["rail"],"route_count":3},"geometry":{"type":"Point","coordinates":[152.979986,-27.539059]}},{"type":"Feature","properties":{"stop_id":"600318","name":"Oxley station, platform 1","routes":["BRIP","BRSP","CAIP","CASP","NAIP","RPSP"],"categories":["rail"],"route_count":6},"geometry":{"type":"Point","coordinates":[152.973948,-27.552183]}},{"type":"Feature","properties":{"stop_id":"600319","name":"Oxley station, platform 2","routes":["SPCA","SPNA","SPRP"],"categories":["rail"],"route_count":3},"geometry":{"type":"Point","coordinates":[152.973732,-27.552199]}},{"type":"Feature","properties":{"stop_id":"600320","name":"Oxley station, platform 3","routes":["IPBR","IPCA","IPNA"],"categories":["rail"],"route_count":3},"geometry":{"type":"Point","coordinates":[152.973665,-27.552284]}},{"type":"Feature","properties":{"stop_id":"600321","name":"Darra station, platform 1","routes":["BRIP","BRSP","CAIP","CASP","NAIP","RPSP"],"categories":["rail"],"route_count":6},"geometry":{"type":"Point","coordinates":[152.952488,-27.565959]}},{"type":"Feature","properties":{"stop_id":"600322","name":"Darra station, platform 2","routes":["SPCA","SPNA","SPRP"],"categories":["rail"],"route_count":3},"geometry":{"type":"Point","coordinates":[152.952571,-27.565946]}},{"type":"Feature","properties":{"stop_id":"600324","name":"Darra station, platform 4","routes":["IPBR","IPCA","IPNA"],"categories":["rail"],"route_count":3},"geometry":{"type":"Point","coordinates":[152.952517,-27.565749]}},{"type":"Feature","properties":{"stop_id":"600325","name":"Richlands station, platform 1","routes":["BRSP","CASP","RPSP"],"categories":["rail"],"route_count":3},"geometry":{"type":"Point","coordinates":[152.946944,-27.596197]}},{"type":"Feature","properties":{"stop_id":"600326","name":"Richlands station, platform 2","routes":["SPCA","SPNA","SPRP"],"categories":["rail"],"route_count":3},"geometry":{"type":"Point","coordinates":[152.946756,-27.596148]}},{"type":"Feature","properties":{"stop_id":"600327","name":"Wacol station, platform 1","routes":["BRIP","CAIP","NAIP"],"categories":["rail"],"route_count":3},"geometry":{"type":"Point","coordinates":[152.924231,-27.589327]}},{"type":"Feature","properties":{"stop_id":"600328","name":"Wacol station, platform 2","routes":["IPBR","IPCA","IPNA"],"categories":["rail"],"route_count":3},"geometry":{"type":"Point","coordinates":[152.924332,-27.589163]}},{"type":"Feature","properties":{"stop_id":"600329","name":"Gailes station, platform 1","routes":["BRIP","CAIP","NAIP"],"categories":["rail"],"route_count":3},"geometry":{"type":"Point","coordinates":[152.919087,-27.602207]}},{"type":"Feature","properties":{"stop_id":"600330","name":"Gailes station, platform 2","routes":["IPBR","IPCA","IPNA"],"categories":["rail"],"route_count":3},"geometry":{"type":"Point","coordinates":[152.919042,-27.602297]}},{"type":"Feature","properties":{"stop_id":"600331","name":"Goodna station, platform 1","routes":["IPBR","IPCA","IPNA"],"categories":["rail"],"route_count":3},"geometry":{"type":"Point","coordinates":[152.901277,-27.608813]}},{"type":"Feature","properties":{"stop_id":"600332","name":"Goodna station, platform 2","routes":["BRIP","CAIP","NAIP"],"categories":["rail"],"route_count":3},"geometry":{"type":"Point","coordinates":[152.90131,-27.608707]}},{"type":"Feature","properties":{"stop_id":"600333","name":"Redbank station, platform 1","routes":["BRIP","CAIP","NAIP"],"categories":["rail"],"route_count":3},"geometry":{"type":"Point","coordinates":[152.872686,-27.599428]}},{"type":"Feature","properties":{"stop_id":"600334","name":"Redbank station, platform 2","routes":["IPBR","IPCA","IPNA"],"categories":["rail"],"route_count":3},"geometry":{"type":"Point","coordinates":[152.872518,-27.59946]}},{"type":"Feature","properties":{"stop_id":"600335","name":"Riverview station, platform 1","routes":["IPBR","IPCA","IPNA"],"categories":["rail"],"route_count":3},"geometry":{"type":"Point","coordinates":[152.850543,-27.594974]}},{"type":"Feature","properties":{"stop_id":"600336","name":"Riverview station, platform 2","routes":["BRIP","CAIP","NAIP"],"categories":["rail"],"route_count":3},"geometry":{"type":"Point","coordinates":[152.850487,-27.594959]}},{"type":"Feature","properties":{"stop_id":"600337","name":"Dinmore station, platform 1","routes":["BRIP","CAIP","NAIP"],"categories":["rail"],"route_count":3},"geometry":{"type":"Point","coordinates":[152.833564,-27.596336]}},{"type":"Feature","properties":{"stop_id":"600338","name":"Dinmore station, platform 2","routes":["IPBR","IPCA","IPNA"],"categories":["rail"],"route_count":3},"geometry":{"type":"Point","coordinates":[152.833429,-27.59637]}},{"type":"Feature","properties":{"stop_id":"600339","name":"Ebbw Vale station, platform 1","routes":["BRIP","CAIP","NAIP"],"categories":["rail"],"route_count":3},"geometry":{"type":"Point","coordinates":[152.822071,-27.603385]}},{"type":"Feature","properties":{"stop_id":"600340","name":"Ebbw Vale station, platform 2","routes":["IPBR","IPCA","IPNA"],"categories":["rail"],"route_count":3},"geometry":{"type":"Point","coordinates":[152.822014,-27.603418]}},{"type":"Feature","properties":{"stop_id":"600341","name":"Bundamba station, platform 1","routes":["BRIP","CAIP","NAIP"],"categories":["rail"],"route_count":3},"geometry":{"type":"Point","coordinates":[152.804772,-27.607479]}},{"type":"Feature","properties":{"stop_id":"600342","name":"Bundamba station, platform 2","routes":["IPBR","IPCA","IPNA"],"categories":["rail"],"route_count":3},"geometry":{"type":"Point","coordinates":[152.804634,-27.607476]}},{"type":"Feature","properties":{"stop_id":"600343","name":"Booval station, platform 1","routes":["BRIP","CAIP","NAIP"],"categories":["rail"],"route_count":3},"geometry":{"type":"Point","coordinates":[152.789665,-27.609331]}},{"type":"Feature","properties":{"stop_id":"600344","name":"Booval station, platform 2","routes":["IPBR","IPCA","IPNA"],"categories":["rail"],"route_count":3},"geometry":{"type":"Point","coordinates":[152.789479,-27.609347]}},{"type":"Feature","properties":{"stop_id":"600345","name":"East Ipswich station, platform 1","routes":["BRIP","CAIP","NAIP"],"categories":["rail"],"route_count":3},"geometry":{"type":"Point","coordinates":[152.774933,-27.610005]}},{"type":"Feature","properties":{"stop_id":"600346","name":"East Ipswich station, platform 2","routes":["IPBR","IPCA","IPNA"],"categories":["rail"],"route_count":3},"geometry":{"type":"Point","coordinates":[152.774727,-27.609988]}},{"type":"Feature","properties":{"stop_id":"600347","name":"Ipswich station, platform 1","routes":["BRIP","CAIP","IPBR","IPCA","IPNA","NAIP"],"categories":["rail"],"route_count":6},"geometry":{"type":"Point","coordinates":[152.760794,-27.613039]}},{"type":"Feature","properties":{"stop_id":"600348","name":"Ipswich station, platform 2","routes":["CAIP","IPCA","IPNA","IPRW","NAIP","RWIP"],"categories":["rail"],"route_count":6},"geometry":{"type":"Point","coordinates":[152.760917,-27.61292]}},{"type":"Feature","properties":{"stop_id":"600349","name":"Ipswich station, platform 3","routes":["IPRW","RWIP"],"categories":["rail"],"route_count":2},"geometry":{"type":"Point","coordinates":[152.760686,-27.612901]}},{"type":"Feature","properties":{"stop_id":"600351","name":"Thomas Street station, platform 1","routes":["RWIP"],"categories":["rail"],"route_count":1},"geometry":{"type":"Point","coordinates":[152.745462,-27.614828]}},{"type":"Feature","properties":{"stop_id":"600352","name":"Thomas Street station, platform 2","routes":["IPRW"],"categories":["rail"],"route_count":1},"geometry":{"type":"Point","coordinates":[152.74538,-27.614825]}},{"type":"Feature","properties":{"stop_id":"600353","name":"Wulkuraka station, platform 1","routes":["RWIP"],"categories":["rail"],"route_count":1},"geometry":{"type":"Point","coordinates":[152.732869,-27.613639]}},{"type":"Feature","properties":{"stop_id":"600354","name":"Wulkuraka station, platform 2","routes":["IPRW"],"categories":["rail"],"route_count":1},"geometry":{"type":"Point","coordinates":[152.732714,-27.613605]}},{"type":"Feature","properties":{"stop_id":"600355","name":"Karrabin station, platform 1","routes":["RWIP"],"categories":["rail"],"route_count":1},"geometry":{"type":"Point","coordinates":[152.708954,-27.604299]}},{"type":"Feature","properties":{"stop_id":"600356","name":"Karrabin station, platform 2","routes":["IPRW"],"categories":["rail"],"route_count":1},"geometry":{"type":"Point","coordinates":[152.709138,-27.604385]}},{"type":"Feature","properties":{"stop_id":"600358","name":"Walloon station, platform 1","routes":["RWIP"],"categories":["rail"],"route_count":1},"geometry":{"type":"Point","coordinates":[152.667785,-27.607317]}},{"type":"Feature","properties":{"stop_id":"600359","name":"Walloon station, platform 2","routes":["IPRW"],"categories":["rail"],"route_count":1},"geometry":{"type":"Point","coordinates":[152.667876,-27.607305]}},{"type":"Feature","properties":{"stop_id":"600360","name":"Thagoona station, platform 1","routes":["RWIP"],"categories":["rail"],"route_count":1},"geometry":{"type":"Point","coordinates":[152.629976,-27.626825]}},{"type":"Feature","properties":{"stop_id":"600361","name":"Thagoona station, platform 2","routes":["IPRW"],"categories":["rail"],"route_count":1},"geometry":{"type":"Point","coordinates":[152.629895,-27.626865]}},{"type":"Feature","properties":{"stop_id":"600362","name":"Rosewood station, platform 1","routes":["IPRW","RWIP"],"categories":["rail"],"route_count":2},"geometry":{"type":"Point","coordinates":[152.592522,-27.643222]}},{"type":"Feature","properties":{"stop_id":"600365","name":"Albion station, platform 1","routes":["BDBR","DBBR","SHBR","SHCL"],"categories":["rail"],"route_count":4},"geometry":{"type":"Point","coordinates":[153.040389,-27.429359]}},{"type":"Feature","properties":{"stop_id":"600366","name":"Albion station, platform 2","routes":["BRBD","BRDB","BRSH","CLSH"],"categories":["rail"],"route_count":4},"geometry":{"type":"Point","coordinates":[153.040437,-27.42931]}},{"type":"Feature","properties":{"stop_id":"600367","name":"Albion station, platform 3","routes":["BDBR","DBBR","SHBR","SHCL"],"categories":["rail"],"route_count":4},"geometry":{"type":"Point","coordinates":[153.040336,-27.429272]}},{"type":"Feature","properties":{"stop_id":"600368","name":"Albion station, platform 4","routes":["BRBD","BRCA","BRDB","BRSH","CLSH"],"categories":["rail"],"route_count":5},"geometry":{"type":"Point","coordinates":[153.040367,-27.42924]}},{"type":"Feature","properties":{"stop_id":"600369","name":"Windsor station, platform 1","routes":["FGBR"],"categories":["rail"],"route_count":1},"geometry":{"type":"Point","coordinates":[153.028996,-27.435285]}},{"type":"Feature","properties":{"stop_id":"600370","name":"Windsor station, platform 2","routes":["BRFG"],"categories":["rail"],"route_count":1},"geometry":{"type":"Point","coordinates":[153.029017,-27.435384]}},{"type":"Feature","properties":{"stop_id":"600371","name":"Wilston station, platform 1","routes":["FGBR"],"categories":["rail"],"route_count":1},"geometry":{"type":"Point","coordinates":[153.019219,-27.436168]}},{"type":"Feature","properties":{"stop_id":"600372","name":"Wilston station, platform 2","routes":["BRFG"],"categories":["rail"],"route_count":1},"geometry":{"type":"Point","coordinates":[153.019151,-27.43629]}},{"type":"Feature","properties":{"stop_id":"600373","name":"Newmarket station, platform 1","routes":["FGBR"],"categories":["rail"],"route_count":1},"geometry":{"type":"Point","coordinates":[153.010747,-27.432848]}},{"type":"Feature","properties":{"stop_id":"600374","name":"Newmarket station, platform 2","routes":["BRFG"],"categories":["rail"],"route_count":1},"geometry":{"type":"Point","coordinates":[153.01054,-27.432949]}},{"type":"Feature","properties":{"stop_id":"600375","name":"Alderley station, platform 2","routes":["BRFG"],"categories":["rail"],"route_count":1},"geometry":{"type":"Point","coordinates":[153.000804,-27.423306]}},{"type":"Feature","properties":{"stop_id":"600376","name":"Alderley station, platform 1","routes":["FGBR"],"categories":["rail"],"route_count":1},"geometry":{"type":"Point","coordinates":[153.000892,-27.42327]}},{"type":"Feature","properties":{"stop_id":"600377","name":"Enoggera station, platform 1","routes":["FGBR"],"categories":["rail"],"route_count":1},"geometry":{"type":"Point","coordinates":[152.992473,-27.420321]}},{"type":"Feature","properties":{"stop_id":"600378","name":"Enoggera station, platform 2","routes":["BRFG"],"categories":["rail"],"route_count":1},"geometry":{"type":"Point","coordinates":[152.992414,-27.420412]}},{"type":"Feature","properties":{"stop_id":"600379","name":"Gaythorne station, platform 1","routes":["FGBR"],"categories":["rail"],"route_count":1},"geometry":{"type":"Point","coordinates":[152.984744,-27.419038]}},{"type":"Feature","properties":{"stop_id":"600380","name":"Gaythorne station, platform 2","routes":["BRFG"],"categories":["rail"],"route_count":1},"geometry":{"type":"Point","coordinates":[152.984819,-27.41908]}},{"type":"Feature","properties":{"stop_id":"600381","name":"Mitchelton station, platform 1","routes":["BRFG","FGBR"],"categories":["rail"],"route_count":2},"geometry":{"type":"Point","coordinates":[152.976099,-27.411575]}},{"type":"Feature","properties":{"stop_id":"600382","name":"Mitchelton station, platform 2","routes":["BRFG"],"categories":["rail"],"route_count":1},"geometry":{"type":"Point","coordinates":[152.976006,-27.411677]}},{"type":"Feature","properties":{"stop_id":"600383","name":"Oxford Park station, platform 1","routes":["BRFG","FGBR"],"categories":["rail"],"route_count":2},"geometry":{"type":"Point","coordinates":[152.969026,-27.404375]}},{"type":"Feature","properties":{"stop_id":"600384","name":"Oxford Park station, platform 2","routes":["BRFG","FGBR"],"categories":["rail"],"route_count":2},"geometry":{"type":"Point","coordinates":[152.968977,-27.404514]}},{"type":"Feature","properties":{"stop_id":"600385","name":"Grovely station, platform 1","routes":["BRFG","FGBR"],"categories":["rail"],"route_count":2},"geometry":{"type":"Point","coordinates":[152.962519,-27.404595]}},{"type":"Feature","properties":{"stop_id":"600386","name":"Grovely station, platform 2","routes":["BRFG","FGBR"],"categories":["rail"],"route_count":2},"geometry":{"type":"Point","coordinates":[152.962543,-27.404559]}},{"type":"Feature","properties":{"stop_id":"600387","name":"Keperra station, platform 1","routes":["BRFG","FGBR"],"categories":["rail"],"route_count":2},"geometry":{"type":"Point","coordinates":[152.95676,-27.409128]}},{"type":"Feature","properties":{"stop_id":"600388","name":"Keperra station, platform 2","routes":["BRFG","FGBR"],"categories":["rail"],"route_count":2},"geometry":{"type":"Point","coordinates":[152.956892,-27.409291]}},{"type":"Feature","properties":{"stop_id":"600389","name":"Ferny Grove station, platform 1","routes":["BRFG","FGBR"],"categories":["rail"],"route_count":2},"geometry":{"type":"Point","coordinates":[152.935687,-27.401674]}},{"type":"Feature","properties":{"stop_id":"600390","name":"Ferny Grove station, platform 2","routes":["BRFG","FGBR"],"categories":["rail"],"route_count":2},"geometry":{"type":"Point","coordinates":[152.935607,-27.401753]}},{"type":"Feature","properties":{"stop_id":"600391","name":"Wooloowin station, platform 1","routes":["BDBR","DBBR","SHBR","SHCL"],"categories":["rail"],"route_count":4},"geometry":{"type":"Point","coordinates":[153.043636,-27.419606]}},{"type":"Feature","properties":{"stop_id":"600392","name":"Wooloowin station, platform 2","routes":["BRBD","BRDB","BRSH","CLSH"],"categories":["rail"],"route_count":4},"geometry":{"type":"Point","coordinates":[153.043603,-27.419687]}},{"type":"Feature","properties":{"stop_id":"600393","name":"Wooloowin station, platform 3","routes":["BDBR","DBBR","SHBR","SHCL"],"categories":["rail"],"route_count":4},"geometry":{"type":"Point","coordinates":[153.043525,-27.419654]}},{"type":"Feature","properties":{"stop_id":"600394","name":"Wooloowin station, platform 4","routes":["BRBD","BRCA","BRDB","BRSH","CLSH"],"categories":["rail"],"route_count":5},"geometry":{"type":"Point","coordinates":[153.043551,-27.419585]}},{"type":"Feature","properties":{"stop_id":"600395","name":"Eagle Junction station, platform 1","routes":["BDBR","DBBR","SHBR","SHCL"],"categories":["rail"],"route_count":4},"geometry":{"type":"Point","coordinates":[153.049684,-27.415535]}},{"type":"Feature","properties":{"stop_id":"600396","name":"Eagle Junction station, platform 2","routes":["BRBD","BRDB","BRSH","CLSH"],"categories":["rail"],"route_count":4},"geometry":{"type":"Point","coordinates":[153.049529,-27.41542]}},{"type":"Feature","properties":{"stop_id":"600397","name":"Toombul station, platform 1","routes":["SHBR","SHCL"],"categories":["rail"],"route_count":2},"geometry":{"type":"Point","coordinates":[153.059143,-27.407816]}},{"type":"Feature","properties":{"stop_id":"600398","name":"Toombul station, platform 2","routes":["BRSH","CLSH"],"categories":["rail"],"route_count":2},"geometry":{"type":"Point","coordinates":[153.059037,-27.407951]}},{"type":"Feature","properties":{"stop_id":"600399","name":"Toombul station, platform 3","routes":["SHBR","SHCL"],"categories":["rail"],"route_count":2},"geometry":{"type":"Point","coordinates":[153.059011,-27.407724]}},{"type":"Feature","properties":{"stop_id":"600400","name":"Toombul station, platform 4","routes":["BRCA","BRSH","CLSH"],"categories":["rail"],"route_count":3},"geometry":{"type":"Point","coordinates":[153.058872,-27.407653]}},{"type":"Feature","properties":{"stop_id":"600401","name":"Eagle Junction station, platform 3","routes":["CAIP","CASP","NAIP","RPBR","RPSP","SHBR","SHCL"],"categories":["rail"],"route_count":7},"geometry":{"type":"Point","coordinates":[153.049899,-27.415427]}},{"type":"Feature","properties":{"stop_id":"600402","name":"Eagle Junction station, platform 4","routes":["BRCA","BRRP","BRSH","CLSH","IPCA","IPNA","SPCA","SPNA","SPRP"],"categories":["rail"],"route_count":9},"geometry":{"type":"Point","coordinates":[153.049678,-27.415319]}},{"type":"Feature","properties":{"stop_id":"600403","name":"Nundah station, platform 1","routes":["SHBR","SHCL"],"categories":["rail"],"route_count":2},"geometry":{"type":"Point","coordinates":[153.0622,-27.400946]}},{"type":"Feature","properties":{"stop_id":"600404","name":"Nundah station, platform 2","routes":["BRSH","CLSH"],"categories":["rail"],"route_count":2},"geometry":{"type":"Point","coordinates":[153.062081,-27.400897]}},{"type":"Feature","properties":{"stop_id":"600405","name":"Nundah station, platform 3","routes":["SHBR","SHCL"],"categories":["rail"],"route_count":2},"geometry":{"type":"Point","coordinates":[153.062096,-27.400812]}},{"type":"Feature","properties":{"stop_id":"600406","name":"Nundah station, platform 4","routes":["BRCA","BRSH","CLSH"],"categories":["rail"],"route_count":3},"geometry":{"type":"Point","coordinates":[153.061958,-27.400806]}},{"type":"Feature","properties":{"stop_id":"600407","name":"Northgate station, platform 1","routes":["SHSH"],"categories":["rail"],"route_count":1},"geometry":{"type":"Point","coordinates":[153.069324,-27.393135]}},{"type":"Feature","properties":{"stop_id":"600408","name":"Northgate station, platform 2","routes":["BRSH","CLSH","SHBR","SHCL"],"categories":["rail"],"route_count":4},"geometry":{"type":"Point","coordinates":[153.06926,-27.393085]}},{"type":"Feature","properties":{"stop_id":"600409","name":"Northgate station, platform 3","routes":["CAIP","CASP","GYBR","NAIP","RPBR","RPSP","SHBR","SHCL"],"categories":["rail"],"route_count":8},"geometry":{"type":"Point","coordinates":[153.069239,-27.39316]}},{"type":"Feature","properties":{"stop_id":"600410","name":"Northgate station, platform 4","routes":["BRCA","BRGY","BRRP","BRSH","CLSH","IPCA","IPNA","SPCA","SPNA","SPRP"],"categories":["rail"],"route_count":10},"geometry":{"type":"Point","coordinates":[153.069177,-27.393117]}},{"type":"Feature","properties":{"stop_id":"600411","name":"Bindha station, platform 1","routes":["SHSH"],"categories":["rail"],"route_count":1},"geometry":{"type":"Point","coordinates":[153.072665,-27.382943]}},{"type":"Feature","properties":{"stop_id":"600412","name":"Bindha station, platform 2","routes":["SHSH"],"categories":["rail"],"route_count":1},"geometry":{"type":"Point","coordinates":[153.072572,-27.382906]}},{"type":"Feature","properties":{"stop_id":"600413","name":"Banyo station, platform 1","routes":["SHSH"],"categories":["rail"],"route_count":1},"geometry":{"type":"Point","coordinates":[153.077503,-27.374379]}},{"type":"Feature","properties":{"stop_id":"600414","name":"Banyo station, platform 2","routes":["SHSH"],"categories":["rail"],"route_count":1},"geometry":{"type":"Point","coordinates":[153.077396,-27.374555]}},{"type":"Feature","properties":{"stop_id":"600415","name":"Nudgee station, platform 1","routes":["SHSH"],"categories":["rail"],"route_count":1},"geometry":{"type":"Point","coordinates":[153.083469,-27.366033]}},{"type":"Feature","properties":{"stop_id":"600416","name":"Nudgee station, platform 2","routes":["SHSH"],"categories":["rail"],"route_count":1},"geometry":{"type":"Point","coordinates":[153.083384,-27.366135]}},{"type":"Feature","properties":{"stop_id":"600417","name":"Boondall station, platform 1","routes":["SHSH"],"categories":["rail"],"route_count":1},"geometry":{"type":"Point","coordinates":[153.067589,-27.346311]}},{"type":"Feature","properties":{"stop_id":"600418","name":"Boondall station, platform 2","routes":["SHSH"],"categories":["rail"],"route_count":1},"geometry":{"type":"Point","coordinates":[153.067662,-27.34639]}},{"type":"Feature","properties":{"stop_id":"600419","name":"North Boondall station, platform 1","routes":["SHSH"],"categories":["rail"],"route_count":1},"geometry":{"type":"Point","coordinates":[153.060617,-27.338552]}},{"type":"Feature","properties":{"stop_id":"600420","name":"North Boondall station, platform 2","routes":["SHSH"],"categories":["rail"],"route_count":1},"geometry":{"type":"Point","coordinates":[153.060656,-27.338627]}},{"type":"Feature","properties":{"stop_id":"600421","name":"Deagon station, platform 1","routes":["SHSH"],"categories":["rail"],"route_count":1},"geometry":{"type":"Point","coordinates":[153.063212,-27.327813]}},{"type":"Feature","properties":{"stop_id":"600422","name":"Deagon station, platform 2","routes":["SHSH"],"categories":["rail"],"route_count":1},"geometry":{"type":"Point","coordinates":[153.063162,-27.327903]}},{"type":"Feature","properties":{"stop_id":"600423","name":"Sandgate station, platform 2","routes":["SHSH"],"categories":["rail"],"route_count":1},"geometry":{"type":"Point","coordinates":[153.069196,-27.322217]}},{"type":"Feature","properties":{"stop_id":"600424","name":"Sandgate station, platform 1","routes":["SHSH"],"categories":["rail"],"route_count":1},"geometry":{"type":"Point","coordinates":[153.069043,-27.322193]}},{"type":"Feature","properties":{"stop_id":"600425","name":"Shorncliffe station, platform 1","routes":["SHSH"],"categories":["rail"],"route_count":1},"geometry":{"type":"Point","coordinates":[153.081116,-27.327328]}},{"type":"Feature","properties":{"stop_id":"600426","name":"International Airport station, platform 1","routes":["BDBR"],"categories":["rail"],"route_count":1},"geometry":{"type":"Point","coordinates":[153.108633,-27.402853]}},{"type":"Feature","properties":{"stop_id":"600427","name":"International Airport station, platform 2","routes":["BRBD"],"categories":["rail"],"route_count":1},"geometry":{"type":"Point","coordinates":[153.108594,-27.402805]}},{"type":"Feature","properties":{"stop_id":"600429","name":"Domestic Airport station, platform 2","routes":["BDBR","BRBD"],"categories":["rail"],"route_count":2},"geometry":{"type":"Point","coordinates":[153.118843,-27.385167]}},{"type":"Feature","properties":{"stop_id":"600430","name":"Clayfield station, platform 1","routes":["BRDB","DBBR"],"categories":["rail"],"route_count":2},"geometry":{"type":"Point","coordinates":[153.057614,-27.418015]}},{"type":"Feature","properties":{"stop_id":"600432","name":"Hendra station, platform 1","routes":["BRDB","DBBR"],"categories":["rail"],"route_count":2},"geometry":{"type":"Point","coordinates":[153.062443,-27.421971]}},{"type":"Feature","properties":{"stop_id":"600433","name":"Ascot station, platform 1","routes":["BRDB","DBBR"],"categories":["rail"],"route_count":2},"geometry":{"type":"Point","coordinates":[153.06338,-27.429443]}},{"type":"Feature","properties":{"stop_id":"600435","name":"Doomben station, platform 1","routes":["BRDB","DBBR"],"categories":["rail"],"route_count":2},"geometry":{"type":"Point","coordinates":[153.074687,-27.431455]}},{"type":"Feature","properties":{"stop_id":"600437","name":"Virginia station, platform 1","routes":["RPBR","RPSP"],"categories":["rail"],"route_count":2},"geometry":{"type":"Point","coordinates":[153.062492,-27.382132]}},{"type":"Feature","properties":{"stop_id":"600438","name":"Virginia station, platform 2","routes":["SPRP"],"categories":["rail"],"route_count":1},"geometry":{"type":"Point","coordinates":[153.062367,-27.382158]}},{"type":"Feature","properties":{"stop_id":"600439","name":"Virginia station, platform 3","routes":["BRCA","BRRP","SPRP"],"categories":["rail"],"route_count":3},"geometry":{"type":"Point","coordinates":[153.062446,-27.382269]}},{"type":"Feature","properties":{"stop_id":"600440","name":"Sunshine station, platform 1","routes":["RPBR","RPSP"],"categories":["rail"],"route_count":2},"geometry":{"type":"Point","coordinates":[153.056359,-27.375693]}},{"type":"Feature","properties":{"stop_id":"600441","name":"Sunshine station, platform 2","routes":["SPRP"],"categories":["rail"],"route_count":1},"geometry":{"type":"Point","coordinates":[153.056238,-27.375593]}},{"type":"Feature","properties":{"stop_id":"600442","name":"Sunshine station, platform 3","routes":["BRCA","BRRP","SPRP"],"categories":["rail"],"route_count":3},"geometry":{"type":"Point","coordinates":[153.056183,-27.375748]}},{"type":"Feature","properties":{"stop_id":"600443","name":"Geebung station, platform 1","routes":["RPBR","RPSP"],"categories":["rail"],"route_count":2},"geometry":{"type":"Point","coordinates":[153.047358,-27.36874]}},{"type":"Feature","properties":{"stop_id":"600444","name":"Geebung station, platform 2","routes":["SPRP"],"categories":["rail"],"route_count":1},"geometry":{"type":"Point","coordinates":[153.047417,-27.368928]}},{"type":"Feature","properties":{"stop_id":"600445","name":"Geebung station, platform 3","routes":["BRCA","BRRP","SPRP"],"categories":["rail"],"route_count":3},"geometry":{"type":"Point","coordinates":[153.047105,-27.368733]}},{"type":"Feature","properties":{"stop_id":"600446","name":"Zillmere station, platform 1","routes":["RPBR","RPSP"],"categories":["rail"],"route_count":2},"geometry":{"type":"Point","coordinates":[153.036877,-27.358823]}},{"type":"Feature","properties":{"stop_id":"600447","name":"Zillmere station, platform 2","routes":["SPRP"],"categories":["rail"],"route_count":1},"geometry":{"type":"Point","coordinates":[153.036757,-27.358945]}},{"type":"Feature","properties":{"stop_id":"600448","name":"Zillmere station, platform 3","routes":["BRCA","BRRP","SPRP"],"categories":["rail"],"route_count":3},"geometry":{"type":"Point","coordinates":[153.036659,-27.358814]}},{"type":"Feature","properties":{"stop_id":"600449","name":"Carseldine station, platform 1","routes":["RPBR","RPSP"],"categories":["rail"],"route_count":2},"geometry":{"type":"Point","coordinates":[153.028963,-27.347236]}},{"type":"Feature","properties":{"stop_id":"600450","name":"Carseldine station, platform 2","routes":["SPRP"],"categories":["rail"],"route_count":1},"geometry":{"type":"Point","coordinates":[153.028831,-27.34731]}},{"type":"Feature","properties":{"stop_id":"600451","name":"Carseldine station, platform 3","routes":["BRCA","BRRP","SPRP"],"categories":["rail"],"route_count":3},"geometry":{"type":"Point","coordinates":[153.028885,-27.347488]}},{"type":"Feature","properties":{"stop_id":"600452","name":"Bald Hills station, platform 1","routes":["RPBR","RPSP"],"categories":["rail"],"route_count":2},"geometry":{"type":"Point","coordinates":[153.011313,-27.320861]}},{"type":"Feature","properties":{"stop_id":"600453","name":"Bald Hills station, platform 2","routes":["SPRP"],"categories":["rail"],"route_count":1},"geometry":{"type":"Point","coordinates":[153.011155,-27.320967]}},{"type":"Feature","properties":{"stop_id":"600454","name":"Bald Hills station, platform 3","routes":["BRCA","BRRP","SPRP"],"categories":["rail"],"route_count":3},"geometry":{"type":"Point","coordinates":[153.011349,-27.32112]}},{"type":"Feature","properties":{"stop_id":"600455","name":"Strathpine station, platform 1","routes":["RPBR","RPSP"],"categories":["rail"],"route_count":2},"geometry":{"type":"Point","coordinates":[152.989562,-27.311016]}},{"type":"Feature","properties":{"stop_id":"600456","name":"Strathpine station, platform 2","routes":["SPRP"],"categories":["rail"],"route_count":1},"geometry":{"type":"Point","coordinates":[152.989628,-27.311235]}},{"type":"Feature","properties":{"stop_id":"600457","name":"Strathpine station, platform 3","routes":["BRCA","BRRP","SPRP"],"categories":["rail"],"route_count":3},"geometry":{"type":"Point","coordinates":[152.989487,-27.311272]}},{"type":"Feature","properties":{"stop_id":"600458","name":"Bray Park station, platform 1","routes":["RPBR","RPSP"],"categories":["rail"],"route_count":2},"geometry":{"type":"Point","coordinates":[152.986252,-27.299803]}},{"type":"Feature","properties":{"stop_id":"600459","name":"Bray Park station, platform 2","routes":["SPRP"],"categories":["rail"],"route_count":1},"geometry":{"type":"Point","coordinates":[152.986217,-27.299699]}},{"type":"Feature","properties":{"stop_id":"600460","name":"Bray Park station, platform 3","routes":["BRCA","BRRP","SPRP"],"categories":["rail"],"route_count":3},"geometry":{"type":"Point","coordinates":[152.986076,-27.29972]}},{"type":"Feature","properties":{"stop_id":"600461","name":"Lawnton station, platform 1","routes":["RPBR","RPSP"],"categories":["rail"],"route_count":2},"geometry":{"type":"Point","coordinates":[152.980982,-27.281391]}},{"type":"Feature","properties":{"stop_id":"600462","name":"Lawnton station, platform 2","routes":["SPRP"],"categories":["rail"],"route_count":1},"geometry":{"type":"Point","coordinates":[152.981022,-27.281536]}},{"type":"Feature","properties":{"stop_id":"600463","name":"Lawnton station, platform 3","routes":["BRCA","BRRP","SPRP"],"categories":["rail"],"route_count":3},"geometry":{"type":"Point","coordinates":[152.980857,-27.281549]}},{"type":"Feature","properties":{"stop_id":"600465","name":"Petrie station, platform 2","routes":["BRCA","BRGY","IPCA","IPNA","SPCA","SPNA"],"categories":["rail"],"route_count":6},"geometry":{"type":"Point","coordinates":[152.982077,-27.26824]}},{"type":"Feature","properties":{"stop_id":"600466","name":"Petrie station, platform 3","routes":["BRRP","SPRP"],"categories":["rail"],"route_count":2},"geometry":{"type":"Point","coordinates":[152.981985,-27.268368]}},{"type":"Feature","properties":{"stop_id":"600467","name":"Dakabin station, platform 1","routes":["CAIP","CASP","NAIP"],"categories":["rail"],"route_count":3},"geometry":{"type":"Point","coordinates":[152.975745,-27.23045]}},{"type":"Feature","properties":{"stop_id":"600468","name":"Dakabin station, platform 2","routes":["BRCA","IPCA","IPNA","SPCA","SPNA"],"categories":["rail"],"route_count":5},"geometry":{"type":"Point","coordinates":[152.975718,-27.230367]}},{"type":"Feature","properties":{"stop_id":"600469","name":"Narangba station, platform 1","routes":["CAIP","CASP","NAIP"],"categories":["rail"],"route_count":3},"geometry":{"type":"Point","coordinates":[152.960471,-27.202515]}},{"type":"Feature","properties":{"stop_id":"600471","name":"Narangba station, platform 3","routes":["BRCA","IPCA","IPNA","SPCA","SPNA"],"categories":["rail"],"route_count":5},"geometry":{"type":"Point","coordinates":[152.959924,-27.202378]}},{"type":"Feature","properties":{"stop_id":"600472","name":"Burpengary station, platform 1","routes":["CAIP","CASP","NAIP"],"categories":["rail"],"route_count":3},"geometry":{"type":"Point","coordinates":[152.95724,-27.162058]}},{"type":"Feature","properties":{"stop_id":"600473","name":"Burpengary station, platform 2","routes":["BRCA","IPCA","IPNA","SPCA","SPNA"],"categories":["rail"],"route_count":5},"geometry":{"type":"Point","coordinates":[152.957243,-27.162009]}},{"type":"Feature","properties":{"stop_id":"600474","name":"Morayfield station, platform 1","routes":["CAIP","CASP","NAIP"],"categories":["rail"],"route_count":3},"geometry":{"type":"Point","coordinates":[152.952586,-27.110192]}},{"type":"Feature","properties":{"stop_id":"600475","name":"Morayfield station, platform 2","routes":["BRCA","IPCA","IPNA","SPCA","SPNA"],"categories":["rail"],"route_count":5},"geometry":{"type":"Point","coordinates":[152.9526,-27.110234]}},{"type":"Feature","properties":{"stop_id":"600476","name":"Caboolture station, platform 1","routes":["BRGY","CAIP","CASP","IPCA","IPNA","SPNA"],"categories":["rail"],"route_count":6},"geometry":{"type":"Point","coordinates":[152.953649,-27.0827]}},{"type":"Feature","properties":{"stop_id":"600477","name":"Caboolture station, platform 2","routes":["BRCA","CAIP","GYBR","IPCA","IPNA","NAIP","SPCA"],"categories":["rail"],"route_count":7},"geometry":{"type":"Point","coordinates":[152.953669,-27.082742]}},{"type":"Feature","properties":{"stop_id":"600478","name":"Caboolture station, platform 3","routes":["BRCA","CAIP","IPCA","SPCA"],"categories":["rail"],"route_count":4},"geometry":{"type":"Point","coordinates":[152.953866,-27.082678]}},{"type":"Feature","properties":{"stop_id":"600479","name":"Elimbah station, platform 1","routes":["GYBR","NAIP"],"categories":["rail"],"route_count":2},"geometry":{"type":"Point","coordinates":[152.945527,-27.011494]}},{"type":"Feature","properties":{"stop_id":"600480","name":"Elimbah station, platform 2","routes":["BRGY","IPNA","SPNA"],"categories":["rail"],"route_count":3},"geometry":{"type":"Point","coordinates":[152.945611,-27.011081]}},{"type":"Feature","properties":{"stop_id":"600481","name":"Beerburrum station, platform 2","routes":["BRGY","IPNA","SPNA"],"categories":["rail"],"route_count":3},"geometry":{"type":"Point","coordinates":[152.95904,-26.959732]}},{"type":"Feature","properties":{"stop_id":"600482","name":"Beerburrum station, platform 1","routes":["GYBR","NAIP"],"categories":["rail"],"route_count":2},"geometry":{"type":"Point","coordinates":[152.959007,-26.959931]}},{"type":"Feature","properties":{"stop_id":"600483","name":"Glass House Mountains station, platform 2","routes":["BRGY","IPNA","SPNA"],"categories":["rail"],"route_count":3},"geometry":{"type":"Point","coordinates":[152.956273,-26.899292]}},{"type":"Feature","properties":{"stop_id":"600484","name":"Glass House Mountains station, platform 1","routes":["BRGY","GYBR","NAIP"],"categories":["rail"],"route_count":3},"geometry":{"type":"Point","coordinates":[152.956345,-26.899412]}},{"type":"Feature","properties":{"stop_id":"600485","name":"Beerwah station, platform 1","routes":["BRGY","GYBR","NAIP"],"categories":["rail"],"route_count":3},"geometry":{"type":"Point","coordinates":[152.958355,-26.857091]}},{"type":"Feature","properties":{"stop_id":"600486","name":"Beerwah station, platform 2","routes":["BRGY","IPNA","SPNA"],"categories":["rail"],"route_count":3},"geometry":{"type":"Point","coordinates":[152.958355,-26.857053]}},{"type":"Feature","properties":{"stop_id":"600487","name":"Landsborough station, platform 1","routes":["BRGY","IPNA","SPNA"],"categories":["rail"],"route_count":3},"geometry":{"type":"Point","coordinates":[152.966377,-26.807956]}},{"type":"Feature","properties":{"stop_id":"600488","name":"Landsborough station, platform 2","routes":["GYBR","NAIP"],"categories":["rail"],"route_count":2},"geometry":{"type":"Point","coordinates":[152.966364,-26.808124]}},{"type":"Feature","properties":{"stop_id":"600489","name":"Mooloolah station, platform 1","routes":["BRGY","GYBR","IPNA","NAIP","SPNA"],"categories":["rail"],"route_count":5},"geometry":{"type":"Point","coordinates":[152.963262,-26.765954]}},{"type":"Feature","properties":{"stop_id":"600490","name":"Eudlo station, platform 1","routes":["BRGY","GYBR","IPNA","NAIP","SPNA"],"categories":["rail"],"route_count":5},"geometry":{"type":"Point","coordinates":[152.956754,-26.72585]}},{"type":"Feature","properties":{"stop_id":"600491","name":"Palmwoods station, platform 1","routes":["BRGY","GYBR","IPNA","NAIP","SPNA"],"categories":["rail"],"route_count":5},"geometry":{"type":"Point","coordinates":[152.960756,-26.688683]}},{"type":"Feature","properties":{"stop_id":"600492","name":"Woombye station, platform 1","routes":["BRGY","GYBR","IPNA","NAIP","SPNA"],"categories":["rail"],"route_count":5},"geometry":{"type":"Point","coordinates":[152.962797,-26.66075]}},{"type":"Feature","properties":{"stop_id":"600493","name":"Nambour station, platform 1","routes":["BRGY","GYBR"],"categories":["rail"],"route_count":2},"geometry":{"type":"Point","coordinates":[152.958068,-26.625358]}},{"type":"Feature","properties":{"stop_id":"600494","name":"Yandina station, platform 1","routes":["BRGY","GYBR"],"categories":["rail"],"route_count":2},"geometry":{"type":"Point","coordinates":[152.95808,-26.560603]}},{"type":"Feature","properties":{"stop_id":"600495","name":"Eumundi station, platform 1","routes":["BRGY","GYBR"],"categories":["rail"],"route_count":2},"geometry":{"type":"Point","coordinates":[152.955033,-26.480985]}},{"type":"Feature","properties":{"stop_id":"600496","name":"Cooroy station, platform 1","routes":["BRGY","GYBR"],"categories":["rail"],"route_count":2},"geometry":{"type":"Point","coordinates":[152.911151,-26.41807]}},{"type":"Feature","properties":{"stop_id":"600497","name":"Pomona station, platform 1","routes":["BRGY","GYBR"],"categories":["rail"],"route_count":2},"geometry":{"type":"Point","coordinates":[152.856666,-26.366115]}},{"type":"Feature","properties":{"stop_id":"600498","name":"Cooran station, platform 1","routes":["BRGY","GYBR"],"categories":["rail"],"route_count":2},"geometry":{"type":"Point","coordinates":[152.822809,-26.334098]}},{"type":"Feature","properties":{"stop_id":"600499","name":"Traveston station, platform 1","routes":["BRGY","GYBR"],"categories":["rail"],"route_count":2},"geometry":{"type":"Point","coordinates":[152.783804,-26.320895]}},{"type":"Feature","properties":{"stop_id":"600500","name":"Gympie North station, platform 1","routes":["BRGY","GYBR"],"categories":["rail"],"route_count":2},"geometry":{"type":"Point","coordinates":[152.682805,-26.159443]}},{"type":"Feature","properties":{"stop_id":"600627","name":"Petrie station, platform 4","routes":["CAIP","CASP","GYBR","NAIP"],"categories":["rail"],"route_count":4},"geometry":{"type":"Point","coordinates":[152.982284,-27.268526]}},{"type":"Feature","properties":{"stop_id":"600628","name":"Wynnum Central station, platform 1","routes":["BRCL","SHCL"],"categories":["rail"],"route_count":2},"geometry":{"type":"Point","coordinates":[153.170214,-27.445224]}},{"type":"Feature","properties":{"stop_id":"600629","name":"Wynnum Central station, platform 2","routes":["CLBR","CLSH"],"categories":["rail"],"route_count":2},"geometry":{"type":"Point","coordinates":[153.170132,-27.445269]}},{"type":"Feature","properties":{"stop_id":"600630","name":"Manly station, platform 1","routes":["CLBR","CLSH"],"categories":["rail"],"route_count":2},"geometry":{"type":"Point","coordinates":[153.180422,-27.457228]}},{"type":"Feature","properties":{"stop_id":"600631","name":"Manly station, platform 2","routes":["BRCL","SHCL"],"categories":["rail"],"route_count":2},"geometry":{"type":"Point","coordinates":[153.180314,-27.457253]}},{"type":"Feature","properties":{"stop_id":"600632","name":"Nambour station, platform 2","routes":["IPNA","NAIP","SPNA"],"categories":["rail"],"route_count":3},"geometry":{"type":"Point","coordinates":[152.958092,-26.625335]}},{"type":"Feature","properties":{"stop_id":"600633","name":"Kippa-Ring station, platform 1","routes":["BRRP","RPBR","RPSP","SPRP"],"categories":["rail"],"route_count":4},"geometry":{"type":"Point","coordinates":[153.081982,-27.225285]}},{"type":"Feature","properties":{"stop_id":"600634","name":"Kippa-Ring station, platform 2","routes":["BRRP","RPBR","RPSP","SPRP"],"categories":["rail"],"route_count":4},"geometry":{"type":"Point","coordinates":[153.081809,-27.225324]}},{"type":"Feature","properties":{"stop_id":"600635","name":"Rothwell station, platform 1","routes":["RPBR","RPSP"],"categories":["rail"],"route_count":2},"geometry":{"type":"Point","coordinates":[153.0481,-27.224071]}},{"type":"Feature","properties":{"stop_id":"600636","name":"Rothwell station, platform 2","routes":["BRRP","SPRP"],"categories":["rail"],"route_count":2},"geometry":{"type":"Point","coordinates":[153.047899,-27.224018]}},{"type":"Feature","properties":{"stop_id":"600637","name":"Mango Hill East station, platform 1","routes":["RPBR","RPSP"],"categories":["rail"],"route_count":2},"geometry":{"type":"Point","coordinates":[153.035794,-27.233566]}},{"type":"Feature","properties":{"stop_id":"600638","name":"Mango Hill East station, platform 2","routes":["BRRP","SPRP"],"categories":["rail"],"route_count":2},"geometry":{"type":"Point","coordinates":[153.035671,-27.233505]}},{"type":"Feature","properties":{"stop_id":"600639","name":"Mango Hill station, platform 1","routes":["RPBR","RPSP"],"categories":["rail"],"route_count":2},"geometry":{"type":"Point","coordinates":[153.028117,-27.246037]}},{"type":"Feature","properties":{"stop_id":"600640","name":"Mango Hill station, platform 2","routes":["BRRP","SPRP"],"categories":["rail"],"route_count":2},"geometry":{"type":"Point","coordinates":[153.027972,-27.24605]}},{"type":"Feature","properties":{"stop_id":"600641","name":"Murrumba Downs station, platform 1","routes":["RPBR","RPSP"],"categories":["rail"],"route_count":2},"geometry":{"type":"Point","coordinates":[153.011464,-27.252525]}},{"type":"Feature","properties":{"stop_id":"600642","name":"Murrumba Downs station, platform 2","routes":["BRRP","SPRP"],"categories":["rail"],"route_count":2},"geometry":{"type":"Point","coordinates":[153.011379,-27.252403]}},{"type":"Feature","properties":{"stop_id":"600643","name":"Kallangur station, platform 1","routes":["RPBR","RPSP"],"categories":["rail"],"route_count":2},"geometry":{"type":"Point","coordinates":[152.999709,-27.256734]}},{"type":"Feature","properties":{"stop_id":"600644","name":"Kallangur station, platform 2","routes":["BRRP","SPRP"],"categories":["rail"],"route_count":2},"geometry":{"type":"Point","coordinates":[152.999645,-27.256606]}},{"type":"Feature","properties":{"stop_id":"600645","name":"Petrie station, platform 5","routes":["RPBR","RPSP"],"categories":["rail"],"route_count":2},"geometry":{"type":"Point","coordinates":[152.982447,-27.268594]}},{"type":"Feature","properties":{"stop_id":"6291","name":"Carindale Shopping Centre Interchange","routes":["222"],"categories":["high_bus"],"route_count":1},"geometry":{"type":"Point","coordinates":[153.102566,-27.503401]}},{"type":"Feature","properties":{"stop_id":"6292","name":"Carindale Shopping Centre station, platform A","routes":["200"],"categories":["high_bus"],"route_count":1},"geometry":{"type":"Point","coordinates":[153.102692,-27.50285]}},{"type":"Feature","properties":{"stop_id":"6294","name":"Carindale Shopping Centre station, platform B","routes":["204"],"categories":["intermediate_bus"],"route_count":1},"geometry":{"type":"Point","coordinates":[153.102632,-27.503115]}},{"type":"Feature","properties":{"stop_id":"6297","name":"Carindale Shopping Centre station, platform E","routes":["590"],"categories":["intermediate_bus"],"route_count":1},"geometry":{"type":"Point","coordinates":[153.102453,-27.503911]}},{"type":"Feature","properties":{"stop_id":"6298","name":"Carindale Shopping Centre station, platform F","routes":["222"],"categories":["high_bus"],"route_count":1},"geometry":{"type":"Point","coordinates":[153.103265,-27.50287]}},{"type":"Feature","properties":{"stop_id":"6299","name":"Carindale Shopping Centre station, platform G","routes":["200"],"categories":["high_bus"],"route_count":1},"geometry":{"type":"Point","coordinates":[153.10322,-27.503138]}},{"type":"Feature","properties":{"stop_id":"63","name":"Eagle St near Eagle Lane (Stop 63)","routes":["125","175","185","204"],"categories":["intermediate_bus"],"route_count":4},"geometry":{"type":"Point","coordinates":[153.030077,-27.466599]}},{"type":"Feature","properties":{"stop_id":"6300","name":"Carindale Shopping Centre station, platform H","routes":["204"],"categories":["intermediate_bus"],"route_count":1},"geometry":{"type":"Point","coordinates":[153.103175,-27.503406]}},{"type":"Feature","properties":{"stop_id":"6302","name":"Carindale Shopping Centre station, platform I","routes":["590"],"categories":["intermediate_bus"],"route_count":1},"geometry":{"type":"Point","coordinates":[153.103131,-27.503672]}},{"type":"Feature","properties":{"stop_id":"6515","name":"Garden City Shopping Centre station","routes":["120","175","180","185","590"],"categories":["high_bus","intermediate_bus"],"route_count":5},"geometry":{"type":"Point","coordinates":[153.080227,-27.563181]}},{"type":"Feature","properties":{"stop_id":"67","name":"Queen Street Stop 67 near Ann St (Orient)","routes":["125","175","185","196","204","300"],"categories":["high_bus","intermediate_bus"],"route_count":6},"geometry":{"type":"Point","coordinates":[153.031104,-27.462758]}},{"type":"Feature","properties":{"stop_id":"829","name":"Latrobe Tce at Old Ithaca Fire Station, stop 9","routes":["375"],"categories":["intermediate_bus"],"route_count":1},"geometry":{"type":"Point","coordinates":[153.001155,-27.458997]}},{"type":"Feature","properties":{"stop_id":"884","name":"QUT Kelvin Grove station, platform 1","routes":["M2","330","333","340"],"categories":["high_bus"],"route_count":4},"geometry":{"type":"Point","coordinates":[153.018201,-27.452432]}},{"type":"Feature","properties":{"stop_id":"889","name":"QUT Kelvin Grove station, platform 2","routes":["M2","330","333","340"],"categories":["high_bus"],"route_count":4},"geometry":{"type":"Point","coordinates":[153.018135,-27.451851]}},{"type":"Feature","properties":{"stop_id":"890","name":"Herston station, platform 2","routes":["M2","330","333","340"],"categories":["high_bus"],"route_count":4},"geometry":{"type":"Point","coordinates":[153.02533,-27.449792]}},{"type":"Feature","properties":{"stop_id":"891","name":"Herston station, platform 1","routes":["M2","330","333","340"],"categories":["high_bus"],"route_count":4},"geometry":{"type":"Point","coordinates":[153.024912,-27.449862]}},{"type":"Feature","properties":{"stop_id":"892","name":"Normanby station, platform 2","routes":["M2","330","333","340","345","390"],"categories":["high_bus","intermediate_bus"],"route_count":6},"geometry":{"type":"Point","coordinates":[153.01511,-27.458866]}},{"type":"Feature","properties":{"stop_id":"893","name":"Normanby station, platform 1","routes":["M2","330","333","340","345","390"],"categories":["high_bus","intermediate_bus"],"route_count":6},"geometry":{"type":"Point","coordinates":[153.015067,-27.459122]}},{"type":"Feature","properties":{"stop_id":"896","name":"RBWH station, platform 2","routes":["M2","330","333","338","340","348"],"categories":["high_bus","intermediate_bus"],"route_count":6},"geometry":{"type":"Point","coordinates":[153.029133,-27.44699]}},{"type":"Feature","properties":{"stop_id":"897","name":"RBWH station, platform 1","routes":["M2","330","333","338","340","348"],"categories":["high_bus","intermediate_bus"],"route_count":6},"geometry":{"type":"Point","coordinates":[153.029207,-27.447393]}},{"type":"Feature","properties":{"stop_id":"9","name":"Ann Street Stop 9 near King George Square","routes":["390"],"categories":["intermediate_bus"],"route_count":1},"geometry":{"type":"Point","coordinates":[153.02496,-27.467273]}},{"type":"Feature","properties":{"stop_id":"919","name":"Queen Street station","routes":["100","120","130","140","150","180","200"],"categories":["high_bus"],"route_count":7},"geometry":{"type":"Point","coordinates":[153.023825,-27.470717]}},{"type":"Feature","properties":{"stop_id":"929","name":"Queen Street station","routes":["330","345","385"],"categories":["high_bus"],"route_count":3},"geometry":{"type":"Point","coordinates":[153.024518,-27.470269]}},{"type":"Feature","properties":{"stop_id":"97","name":"Margaret Street Stop 95 at Albert St","routes":["125","175","185","204"],"categories":["intermediate_bus"],"route_count":4},"geometry":{"type":"Point","coordinates":[153.028004,-27.472734]}},{"type":"Feature","properties":{"stop_id":"996","name":"Queen Street station, 1a","routes":["100"],"categories":["high_bus"],"route_count":1},"geometry":{"type":"Point","coordinates":[153.023906,-27.470815]}},{"type":"Feature","properties":{"stop_id":"997","name":"Queen Street station, 1b","routes":["330"],"categories":["high_bus"],"route_count":1},"geometry":{"type":"Point","coordinates":[153.024082,-27.47067]}},{"type":"Feature","properties":{"stop_id":"998","name":"Queen Street station, 1c","routes":["150"],"categories":["high_bus"],"route_count":1},"geometry":{"type":"Point","coordinates":[153.024283,-27.470526]}},{"type":"Feature","properties":{"stop_id":"999","name":"Queen Street station, 1d","routes":["140"],"categories":["high_bus"],"route_count":1},"geometry":{"type":"Point","coordinates":[153.024472,-27.470427]}}]}